POSTCODE,LONGITUDE,LATITUDE,ADDRESSLINE1,ADDRESSLINE2,POSTCODE2,TELEPHONE,DESCRIPTION,TITLE,UPDATED
OL16 2UP,-2.139599,53.622636,Barnardos,Unique Mill Enterprise Centre,OL16 2UP,01706 515717,I am the description,I am the title,yes
NG34 7SD,-0.409808,52.9996,11-19 Targeted Support,The sessions House,NG34 7SD,01529 308722,I am the description,I am the title,yes
EH7 4HX,-3.192557,55.96353,Barnardos,17 Claremont Crescent,EH7 4HX,1315564583,I am the description,I am the title,yes
EH7 4HX,-3.192557,55.96353,Barnardos,17 Claremont Crescent,EH7 4HX,1315564583,I am the description,I am the title,yes
G4 9JT,-4.261151,55.869001,38-40 New City Road,,G4 9JT,0141 332 8580,I am the description,I am the title,yes
L1 4DE,-2.977932,53.40184,Barnardos,24 Colquitt Street,L1 4DE,0151 708 7323,I am the description,I am the title,yes
G42 7JG,-4.260849,55.839851,70 Coplaw Street,Govanhill,G42 7JG,0141 423 9225,I am the description,I am the title,yes
G42 7JG,-4.260849,55.839851,70 Coplaw Street,Govanhill,G42 7JG,0141 423 9225,I am the description,I am the title,yes
G42 7JG,-4.260849,55.839851,70 Coplaw Street,Govanhill,G42 7JG,0141 423 9225,I am the description,I am the title,yes
G42 7JG,-4.260849,55.839851,70 Coplaw Street,Govanhill,G42 7JG,0141 423 9225,I am the description,I am the title,yes
G42 7JG,-4.260849,55.839851,70 Coplaw Street,Govanhill,G42 7JG,0141 423 9225,I am the description,I am the title,yes
G42 7JG,-4.260849,55.839851,70 Coplaw Street,Govanhill,G42 7JG,0141 423 9225,I am the description,I am the title,yes
G42 7JG,-4.260849,55.839851,70 Coplaw Street,Govanhill,G42 7JG,0141 423 9225,I am the description,I am the title,yes
YO23 3FT,-1.184137,53.925909,Askham Grange Prison,Main Street,YO23 3FT,01904 772078,I am the description,I am the title,yes
CH45 8RE,-3.081168,53.419997,Action with Young Carers Wirral,St Mary's Building/Solar Campus,CH45 8RE,0151 637 6173,I am the description,I am the title,yes
L1 4DE,-2.977932,53.40184,Barnardos,24 Colquitt Street,L1 4DE,0151 708 7323,I am the description,I am the title,yes
BT1 6DP,-5.93736,54.59681,North & West Belfast Health & Social Services Trust,Glendinning House,BT1 6DP,2890327156,I am the description,I am the title,yes
BD8 7BS,-1.763391,53.807702,Barnardos,Queens House,BD8 7BS,0870 2408342,I am the description,I am the title,yes
CO1 1PB,0.896634,51.888058,Barnardos,54 Head Street,CO1 1PB,01206 562 438,I am the description,I am the title,yes
CV11 4JJ,-1.458455,52.516446,Barnardos,68-74 Attleborough Road,CV11 4JJ,024 76 641206,I am the description,I am the title,yes
CV11 4JJ,-1.458455,52.516446,Barnardos Albion Court,68-74 Attleborough Road,CV11 4JJ,024 76 641206,I am the description,I am the title,yes
AB51 3QA,-2.373165,57.281687,Barnardos,31 High Street,AB51 3QA,01467 624334,I am the description,I am the title,yes
BD15 7NQ,-1.8214,53.800415,Barnardos,91 Saffron Drive,BD15 7NQ,01274 545186,I am the description,I am the title,yes
BD15 7NQ,-1.8214,53.800415,Barnardos,91 Saffron Drive,BD15 7NQ,01274 545186,I am the description,I am the title,yes
BD15 7NQ,-1.8214,53.800415,Saffron Drive,Allerton,BD15 7NQ,01274 545186,I am the description,I am the title,yes
BD15 7NQ,-1.8214,53.800415,Barnardos,91 Saffron Drive,BD15 7NQ,01274 545186,I am the description,I am the title,yes
BD15 7NQ,-1.8214,53.800415,Barnardos,91 Saffron Drive,BD15 7NQ,01274 545186,I am the description,I am the title,yes
BD15 7NQ,-1.8214,53.800415,91 Saffron Drive,Allerton,BD15 7NQ,01274 545186,I am the description,I am the title,yes
BD15 7NQ,-1.8214,53.800415,91 Saffron Drive,Allerton,BD15 7NQ,01274 545186,I am the description,I am the title,yes
BD15 7NQ,-1.8214,53.800415,Barnardos,91 Saffron Drive,BD15 7NQ,01274 545186,I am the description,I am the title,yes
BD15 7NQ,-1.8214,53.800415,Barnardos,91 Saffron Drive,BD15 7NQ,01274 545186,I am the description,I am the title,yes
BD15 7NQ,-1.8214,53.800415,Barnardos,91 Saffron Drive,BD15 7NQ,01274 545186,I am the description,I am the title,yes
BD15 7NQ,-1.8214,53.800415,Barnardos,91 Saffron Drive,BD15 7NQ,01274 545186,I am the description,I am the title,yes
B7 4PS,-1.87941,52.49068,Barnardos Amazon,40 Rupert Street,B7 4PS,0121 359 5333,I am the description,I am the title,yes
SE7 8TX,0.038949,51.483908,Fairfield Centre,45 Fairfield Grove,SE7 8TX,07827  955405,I am the description,I am the title,yes
LL29 8NB,-3.72954,53.296657,Barnardos,21 Wynnstay Road,LL29 8NB,01492 532390,I am the description,I am the title,yes
G42 7JG,-4.260849,55.839851,70 Coplaw Street,Govanhill,G42 7JG,0141 423 9225,I am the description,I am the title,yes
G20 7XJ,-4.270692,55.874173,199 Maryhill Road,,G20 7XJ,0141 352 9847,I am the description,I am the title,yes
BT65 5BE,-6.371161,54.447833,Parenting Services,Unit 4 First Floor,BT65 5BE,028 3831 1450,I am the description,I am the title,yes
BT61 9HD,-6.632271,54.354537,The Doctor's House,39 Abbey Street,BT61 9HD,028 3752 2380,I am the description,I am the title,yes
BT61 7DY,-6.658381,54.349093,The Doctor's House,39 Abbey Street,BT61 7DY,028 3752 2380,I am the description,I am the title,yes
OL1 2HF,-2.119889,53.549754,Barnardos,294-296 Rochdale Road,OL1 2HF,0161 628 6630,I am the description,I am the title,yes
BT27 4AB,-6.0422,54.5143,1 Sackville Street,,BT27 4AB,2892607537,I am the description,I am the title,yes
B63 2UX,-2.090189,52.460365,"Barnardos, Blantyre House",4 Barrack Lane,B63 2UX,01384 411722,I am the description,I am the title,yes
B63 2UX,-2.090189,52.460365,"Barnardos, Blantyre House",4 Barrack Lane,B63 2UX,01384 411722,I am the description,I am the title,yes
KA8 8HH,-4.624779,55.470254,Barnardos,62 Viewfield Road,KA8 8HH,01292 610479,I am the description,I am the title,yes
AB51 3QA,-2.373165,57.281687,Barnardos,31 High Street,AB51 3QA,,I am the description,I am the title,yes
SA1 1LG,-3.942543,51.623131,Barnardos,32-36 High Street,SA1 1LG,01792 455105,I am the description,I am the title,yes
SA1 1LG,-3.942543,51.623131,Barnardos,32-36 High Street,SA1 1LG,01792 455105,I am the description,I am the title,yes
LN2 5RY,-0.527393,53.234094,"Barnardos BEET Service,","Rear Annexe, Lindum House",LN2 5RY,01522 575955,I am the description,I am the title,yes
BT9 6EE,-5.9482,54.5808,Barnardos Tuar Ceatha Services,23 Windsor Avenue,BT9 6EE,028 9066 8766,I am the description,I am the title,yes
NE24 1EB,-1.512591,55.127199,Barnardo's Young Peoples Project in Northumberland,The Point,NE24 1EB,01670 797800,I am the description,I am the title,yes
NE24 1EB,-1.512591,55.127199,The Point,45-49 Bowes Street,NE24 1EB,01670 797800,I am the description,I am the title,yes
NE24 1EB,-1.512591,55.127199,The Point,45-49 Bowes Street,NE24 1EB,01670 797800,I am the description,I am the title,yes
NE24 1EB,-1.512591,55.127199,Barnardo's Young Peoples Project  in Northumberland,The Point,NE24 1EB,01670 797800,I am the description,I am the title,yes
NE24 1EB,-1.512591,55.127199,Barnardo's Young Peoples Project  in Northumberland,The Point,NE24 1EB,01670 797800,I am the description,I am the title,yes
NE46 3PT,-2.102995,54.973038,Flat 4,Links House,NE46 3PT,01434 601 5523,I am the description,I am the title,yes
SE19 3BG,-0.08663,51.4185,Heshima Family Support Centre,2 Coxwell Road,SE19 3BG,0208 771 0907,I am the description,I am the title,yes
DD2 2LQ,-2.994438,56.462608,Barnardo's  Family Services Dundee,3 Fleuchar Street,DD2 2LQ,01382 432631,I am the description,I am the title,yes
DD2 2LQ,-2.994438,56.462608,"Barnardo's Family Services, Dundee",3 Fleuchar Street,DD2 2LQ,01382 432631,I am the description,I am the title,yes
G3 8JU,-4.280318,55.862212,"Barnardos, Suite 5/3",Skypark SP5,G3 8JU,0141 248 7530,I am the description,I am the title,yes
S60 2AB,-1.35454,53.425919,Barnardos,10 Nightingale Court,S60 2AB,,I am the description,I am the title,yes
S60 2AB,-1.35454,53.425919,Barnardos,10 Nightingale Court,S60 2AB,,I am the description,I am the title,yes
S60 2AB,-1.35454,53.425919,Barnardos,10 Nightingale Court,S60 2AB,01709 377157,I am the description,I am the title,yes
S60 2AB,-1.35454,53.425919,Barnardos,10 Nightingale Court,S60 2AB,,I am the description,I am the title,yes
ML1 3HU,-3.995231,55.790678,Barnardo's Axis Lanarkshire Suite T,Town Hall Business Centre 1-11,ML1 3HU,01698 252800,I am the description,I am the title,yes
FK1 4RE,-3.827638,55.998133,Barnardo'S Axis Service Falkirk,Watling Lodge,FK1 4RE,01324 718 277,I am the description,I am the title,yes
FK1 4RE,-3.827638,55.998133,Barnardo's Axis Service Falkirk,Watling Lodge,FK1 4RE,01324 718 277,I am the description,I am the title,yes
BD8 7BS,-1.763391,53.807702,Queens House,Queens Road,BD8 7BS,01274 481 183,I am the description,I am the title,yes
KY1 1TE,-3.16464,56.098467,Barnardos,Bridge Street,KY1 1TE,01592 265294,I am the description,I am the title,yes
HP6 6PF,-0.570841,51.672576,Amersham Children's Centre,Bell Lane,HP6 6PF,01494 764258,I am the description,I am the title,yes
HP9 1RJ,-0.668447,51.603371,Beaconsfield Children's Centre,Off Holtspur Way,HP9 1RJ,01494 678244,I am the description,I am the title,yes
UB9 5JL,-0.504397,51.583564,Denham & Gerrards Cross Children's Centre,Nightingale Way,UB9 5JL,01895 835967,I am the description,I am the title,yes
HP15 7UW,-0.711007,51.650046,Hazlemere & Loudwater Children's Centre,Highfield Way,HP15 7UW,01494 813762,I am the description,I am the title,yes
LU7 9EX,-0.632647,51.835809,Ivinghoe & Pitstone Children's Centre,High Street,LU7 9EX,01296 662363,I am the description,I am the title,yes
HP16 0JH,-0.740149,51.684396,Prestwood & Missenden Childrens Centre,Prestwood Church Hall,HP16 0JH,01494 866181,I am the description,I am the title,yes
HP27 9HY,-0.82973,51.728823,Risborough Children's Centre,Wellington Avenue,HP27 9HY,01844 347934,I am the description,I am the title,yes
HP14 3TQ,-0.899488,51.663976,Stokenchurch Children's Centre,Betty Messenger Building,HP14 3TQ,01494 483140,I am the description,I am the title,yes
HP18 0LX,-0.921776,51.848615,Waddesdon & Whitchurch Children's Centre,Waddesdon Football Pavilion,HP18 0LX,01296 655218,I am the description,I am the title,yes
HP22 6HF,-0.740912,51.766371,Wendover Childrens Centre,Wharf Road,HP22 6HF,01296 621143,I am the description,I am the title,yes
LU7 0NY,-0.720838,51.894544,Wing Children's Centre,Overstone Combined School,LU7 0NY,01296 681163,I am the description,I am the title,yes
OX26 5DX,-1.112136,51.90078,2 Grange Mews,Station Road,OX26 5DX,01869 252905,I am the description,I am the title,yes
LL29 8NB,-3.72954,53.296657,Barnardos,21 Wynnstay Road,LL29 8NB,01492 532390,I am the description,I am the title,yes
CF24 5TD,-3.160634,51.476929,Barnardo's Adoption and Fostering Service,Trident Court,CF24 5TD,029 20493387,I am the description,I am the title,yes
DD11 1RL,-2.588432,56.558865,Barnardo's Family Service Angus,22-24 Catherine Street,DD11 1RL,01241 873146,I am the description,I am the title,yes
DD2 2LQ,-2.994438,56.462608,"Barnardo's  Family Services, Dundee",3 Fleuchar Street,DD2 2LQ,01382 432631,I am the description,I am the title,yes
DD2 2LQ,-2.994438,56.462608,Barnardo's  Family Services Dundee,3 Fleuchar Street,DD2 2LQ,01382 432631,I am the description,I am the title,yes
DD2 2LQ,-2.994438,56.462608,Barnardo's  Family Services Dundee,3 Fleuchar Street,DD2 2LQ,01382 432631,I am the description,I am the title,yes
B63 2UX,-2.090189,52.460365,"Barnardos, Blantyre House",4 Barrack Lane,B63 2UX,01384 411722,I am the description,I am the title,yes
B63 2UX,-2.090189,52.460365,"Barnardos, Blantyre House",4 Barrack Lane,B63 2UX,01384 411722,I am the description,I am the title,yes
B63 2UX,-2.090189,52.460365,"Barnardos, Blantyre House",4 Barrack Lane,B63 2UX,01384 411722,I am the description,I am the title,yes
ML1 3HU,-3.995231,55.790678,"Barnardos Family Support Services, NL, Scotland",1-11 High Road,ML1 3HU,01698 261298,I am the description,I am the title,yes
TN4 0PL,0.259836,51.154815,Barnardos,128- 130 London Road,TN4 0PL,1892510650,I am the description,I am the title,yes
BS16 3RY,-2.525324,51.47684,Barnardo's South West Regional Office,Verona House,BS16 3RY,0117 9375507,I am the description,I am the title,yes
BS16 3RY,-2.525324,51.47684,Barnardo's South West Regional Office,Verona House,BS16 3RY,0117 9375507,I am the description,I am the title,yes
TN4 0PL,0.259836,51.154815,Barnardos,128 London Road,TN4 0PL,1892510650,I am the description,I am the title,yes
TN4 0PL,0.259836,51.154815,Barnardos,128- 130 London Road,TN4 0PL,1892510650,I am the description,I am the title,yes
DH2 1AN,-1.58689,54.87153,Barnardo's,1 Lumley Court,DH2 1AN,0191 492 9000,I am the description,I am the title,yes
SA11 1LE,-3.804422,51.65894,20 London Road,,SA11 1LE,01639 620 771,I am the description,I am the title,yes
DE75 7EB,-1.353779,53.012367,Barnardos,9 Mundy Street,DE75 7EB,01773 717212,I am the description,I am the title,yes
NE6 2RJ,-1.5601,54.975082,St. Martins Centre,Roman Avenue,NE6 2RJ,0191 276 4002,I am the description,I am the title,yes
PA15 1DJ,-4.753498,55.945166,Barnardos,9 Terrace Road,PA15 1DJ,01475 728493,I am the description,I am the title,yes
PA15 1DJ,-4.753498,55.945166,Barnardos,9 Terrace Road,PA15 1DJ,01475 728493,I am the description,I am the title,yes
M15 4ZY,-2.253159,53.46643,Zion Community Health Resource Centre,339 Stretford Road,M15 4ZY,1613420812,I am the description,I am the title,yes
G3 8JU,-4.280318,55.862212,"Barnardos, Suite 5/3",Skypark SP5,G3 8JU,0141 222 4700,I am the description,I am the title,yes
EH3 8JQ,-3.214912,55.946866,Barnardos,6 Torphichen Street,EH3 8JQ,0131 228 4121,I am the description,I am the title,yes
EH3 8JQ,-3.214912,55.946866,Barnardos,6 Torphichen Street,EH3 8JQ,0131 228 4121,I am the description,I am the title,yes
G51 1DH,-4.296539,55.853831,"Barnardos, Unit G/1",Festival Business Centre,G51 1DH,0141 427 3690,I am the description,I am the title,yes
AB10 1UQ,-2.121112,57.144617,Barnardo's,20 Carden Place,AB10 1UQ,01224 624090,I am the description,I am the title,yes
BS16 3RY,-2.525324,51.47684,Barnardos,Verona House,BS16 3RY,01749 330533,I am the description,I am the title,yes
PA2 7RG,-4.421297,55.829409,Barnardos Threads,4 Lochfield Road,PA2 7RG,0141 884 6696,I am the description,I am the title,yes
PA2 7RG,-4.421297,55.829409,Barnardo's Threads,4 Lochfield Road,PA2 7RG,0141 884 6696,I am the description,I am the title,yes
PA2 7RG,-4.421297,55.829409,Barnardos Threads,4 Lochfield Road,PA2 7RG,0141 884 6696,I am the description,I am the title,yes
PA2 7RG,-4.421297,55.829409,Barnardos Threads,4 Lochfield Road,PA2 7RG,0141 884 6696,I am the description,I am the title,yes
BD10 8SD,-1.735532,53.826043,West Yorkshire Police,Javelin House,BD10 8SD,01274 618421,I am the description,I am the title,yes
S70 2JT,-1.485321,53.555108,Barnardo's Voices for children young people and families,11 Churchfield Court,S70 2JT,1226298748,I am the description,I am the title,yes
S70 2JT,-1.485321,53.555108,Barnardo's Voices for Children Young People and Families,11 Churchfield Court,S70 2JT,01226 298748,I am the description,I am the title,yes
DD3 6HG,-2.983583,56.466441,Barnardos,1 Dudhope Terrace,DD3 6HG,01382 221944,I am the description,I am the title,yes
DD3 6HG,-2.983583,56.466441,Barnardos Works Dundee,1 Dudhope Terrace,DD3 6HG,01382 221944,I am the description,I am the title,yes
EH5 1PW,-3.225804,55.981918,Barnardo's Works Edinburgh,62 West Harbour Road,EH5 1PW,0131 559 3940,I am the description,I am the title,yes
PA2 7RG,-4.421297,55.829409,C/O Barnardo's Works Renfrewshire,12 Lochfield Road,PA2 7RG,0141 884 6252,I am the description,I am the title,yes
IV3 5NS,-4.231313,57.474894,14 Ardross Street,,IV3 5NS,01463 715178,I am the description,I am the title,yes
IV3 5NS,-4.231313,57.474894,14 Ardross Street,,IV3 5NS,01463 715178,I am the description,I am the title,yes
IV3 5NS,-4.231313,57.474894,14 Ardross Street,,IV3 5NS,01463 715178,I am the description,I am the title,yes
IV3 5NS,-4.231313,57.474894,14 Ardross Street,,IV3 5NS,01463 715178,I am the description,I am the title,yes
PA2 7RG,-4.421297,55.829409,12 Lochfield Road,,PA2 7RG,0141 884 6252,I am the description,I am the title,yes
G34 9HJ,-4.116813,55.86801,Westwood Business Centre,Aberdalgie Road,G34 9HJ,0141 773 4297,I am the description,I am the title,yes
CV11 4JJ,-1.458455,52.516446,Barnardos,68-74 Attleborough Road,CV11 4JJ,02476 356052,I am the description,I am the title,yes
B7 4PS,-1.87941,52.49068,Barnardos,40 Rupert Street,B7 4PS,0121-359-5333,I am the description,I am the title,yes
CF5 4LE,-3.244255,51.48126,Barnardos Ely Family Centre,Grand Avenue,CF5 4LE,029 20577074,I am the description,I am the title,yes
B63 2UX,-2.090189,52.460365,"Barnardos, Blantyre House",4 Barrack Lane,B63 2UX,01384 411722,I am the description,I am the title,yes
TN4 0PL,0.259836,51.154815,Barnardos,128- 130 London Road,TN4 0PL,1892510650,I am the description,I am the title,yes
PA15 1DJ,-4.753498,55.945166,Barnardo's,9 Terrace Road,PA15 1DJ,01475 728493,I am the description,I am the title,yes
DE11 0ER,-1.560626,52.784648,Barnardos Stepping Forward,70-72 Elmsleigh Drive,DE11 0ER,01283 551251,I am the description,I am the title,yes
DE11 0ER,-1.560626,52.784648,Barnardos Stepping Forward,70-72 Elmsleigh Drive,DE11 0ER,01283 551251,I am the description,I am the title,yes
DE11 0ER,-1.560626,52.784648,Barnardos Stepping Forward,70-72 Elmsleigh Drive,DE11 0ER,01283 551251,I am the description,I am the title,yes
CM2 8RW,0.465057,51.702118,Thriftwood School,Slades Lane,CM2 8RW,,I am the description,I am the title,yes
S70 2JT,-1.485321,53.555108,11,Churchfield Court,S70 2JT,01226 298748,I am the description,I am the title,yes
S70 2JT,-1.485321,53.555108,Barnardos Voices for children young people and families,11 Churchfield Court,S70 2JT,01226 298748,I am the description,I am the title,yes
DY9 7ND,-2.130803,52.45318,Units 3 & 4 Gainsborough Trading Estate,Rufford Road,DY9 7ND,01384 444561,I am the description,I am the title,yes
SP10 1NS,-1.475293,51.218188,Unit 5,Westmarch Business Centre,SP10 1NS,01264 356063,I am the description,I am the title,yes
L25 2UD,-2.863945,53.388939,Barnardos,7 Lineside Close,L25 2UD,0151 488 1100,I am the description,I am the title,yes
NE2 2JL,-1.597146,54.988617,Barnardo's Orchard House,Buston Terrace,NE2 2JL,1912404800,I am the description,I am the title,yes
NE33 4BA,-1.430325,54.985884,Street Level Family Services,Stanhope Parade,NE33 4BA,0191 4553027,I am the description,I am the title,yes
PA2 7RG,-4.421297,55.829409,Lochfield Road,,PA2 7RG,0141 884 6252,I am the description,I am the title,yes
E17 7QP,-0.02019,51.581952,Barnardos,1b Priory Avenue,E17 7QP,020 8503 7270,I am the description,I am the title,yes
PR25 2YA,-2.691075,53.695603,Bay6 Project,1 Dorothy Avenue,PR25 2YA,1772641002,I am the description,I am the title,yes
SA1 1LG,-3.942543,51.623131,Barnardos,32-36 High Street,SA1 1LG,01792 455105,I am the description,I am the title,yes
SA1 1LG,-3.942543,51.623131,Barnardos,32-36 High Street,SA1 1LG,01792 455105,I am the description,I am the title,yes
SA1 1LG,-3.942543,51.623131,Barnardos,32-36 High Street,SA1 1LG,01792 455105,I am the description,I am the title,yes
CT20 2AS,1.174456,51.080232,c/o Home Start,Merton House,CT20 2AS,,I am the description,I am the title,yes
GL2 2AR,-2.269347,51.823997,The Beacon Childrens Centre,Valley Gardens Kingsway,GL2 2AR,01452 526856,I am the description,I am the title,yes
CO4 5XT,0.900413,51.907148,Queen Boudica Primary School,Cowper Crescent,CO4 5XT,01206 854920,I am the description,I am the title,yes
M22 4PZ,-2.258242,53.390627,Barnardos,22 Lyndene Road,M22 4PZ,1619987280,I am the description,I am the title,yes
M22 4PZ,-2.258242,53.390627,Barnardos,22 Lyndene Road,M22 4PZ,0161 998 7280,I am the description,I am the title,yes
M22 4PZ,-2.258242,53.390627,Barnardos,22 Lyndene Road,M22 4PZ,0161 998 7280,I am the description,I am the title,yes
CO2 8NN,0.903847,51.868193,School Road,,CO2 8NN,01206 578978,I am the description,I am the title,yes
M8 0NE,-2.238259,53.508985,Manchester City Council,Woodville Resource Centre,M8 0NE,0161 795 0795,I am the description,I am the title,yes
CM12 9AB,0.415595,51.622901,Billericay Library,143 High Street,CM12 9AB,01277 659 589,I am the description,I am the title,yes
CO2 0LZ,0.819045,51.844454,Birch C of E Primary School,School Hill,CO2 0LZ,0206 331118,I am the description,I am the title,yes
B7 4PS,-1.87941,52.49068,Barnardos,40 Rupert Street,B7 4PS,0121 359 5333,I am the description,I am the title,yes
GL52 8NN,-2.059487,51.946648,Bishops Cleeve Children's Centre,"Bishops Cleeve Library, Tobyfield Road",GL52 8NN,01242 603602,I am the description,I am the title,yes
FY1 4DP,-3.042194,53.813292,Barnardos Blackpool & North Lancashire Project,16 Bennett Avenue,FY1 4DP,1253626480,I am the description,I am the title,yes
FY1 4DP,-3.042194,53.813292,Barnardos Blackpool & North Lancashire Project,16 Bennett Avenue,FY1 4DP,1253626480,I am the description,I am the title,yes
FY1 4DP,-3.042194,53.813292,Barnardos Blackpool & North Lancashire Project,16 Bennett Avenue,FY1 4DP,1253626480,I am the description,I am the title,yes
FY1 4DP,-3.042194,53.813292,Barnardos Blackpool & North Lancashire Project,16 Bennett Avenue,FY1 4DP,1253626480,I am the description,I am the title,yes
FY1 4DP,-3.042194,53.813292,Barnardos Blackpool & North Lancashire Project,16 Bennett Avenue,FY1 4DP,1253626480,I am the description,I am the title,yes
FY1 4DP,-3.042194,53.813292,Barnardos Blackpool & North Lancashire Project,16 Bennett Avenue,FY1 4DP,1253626480,I am the description,I am the title,yes
NP23 6EY,-3.20834,51.783533,Blaenau Gwent Social Services,7 Bridge Street,NP23 6EY,01495 307950,I am the description,I am the title,yes
NE24 5AQ,-1.537614,55.124996,Blyth West Childrens Centre,Devonworth Place,NE24 5AQ,01670 541150,I am the description,I am the title,yes
L25 2UD,-2.863945,53.388939,Barnardo's,7 Lineside Close,L25 2UD,0845 894 3448,I am the description,I am the title,yes
EH51 9AY,-3.606036,56.012964,"Barnardos, Bo Ness Education and Family Support Service",17 Cadzow Crescent,EH51 9AY,01506 823 118,I am the description,I am the title,yes
A,-3.435973,55.378051,Barnardos,,A,0,I am the description,I am the title,yes
BH8 9PU,-1.858122,50.747821,Queens Park Childrens Centre,East Way,BH8 9PU,,I am the description,I am the title,yes
BH12 5AG,-1.92774,50.751284,Barnardos,Discovery Court Business Centre,BH12 5AG,01202 853143,I am the description,I am the title,yes
E3 3EN,-0.015319,51.528076,95 Bromley High Street,,E3 3EN,020 8983 7973,I am the description,I am the title,yes
BD8 7BS,-1.763391,53.807702,Barnardos,Queens House,BD8 7BS,01274 481183,I am the description,I am the title,yes
BD8 7BS,-1.763391,53.807702,Barnardos,Queens House,BD8 7BS,1274481183,I am the description,I am the title,yes
GL18 1QT,-2.414043,51.932474,Barnardo's,The Family Tree Children's Centre,GL18 1QT,01531 822745,I am the description,I am the title,yes
TS7 9LF,-1.175287,54.550225,"Barnardos, Bridgeway Project",Allendale Road,TS7 9LF,01642 300774,I am the description,I am the title,yes
TS7 9LF,-1.175287,54.550225,"Barnardos, Bridgeway Project",Allendale Road,TS7 9LF,01642 300774,I am the description,I am the title,yes
TS7 9LF,-1.175287,54.550225,"Barnardos, Bridgeway Project",Allendale Road,TS7 9LF,01642 300774,I am the description,I am the title,yes
TS7 9LF,-1.175287,54.550225,"Barnardos, Bridgeway Project",Allendale Road,TS7 9LF,01642 300774,I am the description,I am the title,yes
TS7 9LF,-1.175287,54.550225,"Barnardos, Bridgeway Project",Allendale Road,TS7 9LF,01642 300774,I am the description,I am the title,yes
BN41 2PA,-0.220694,50.843785,55 Drove Road,Portslade,BN41 2PA,01273 295179,I am the description,I am the title,yes
BN41 2PA,-0.220694,50.843785,55 Drove Road,Portslade,BN41 2PA,01273 295179,I am the description,I am the title,yes
BN41 2PA,-0.220694,50.843785,55 Drove Road,Portslade,BN41 2PA,01273 295179,I am the description,I am the title,yes
BS2 0EZ,-2.581148,51.456381,38-39 Old Market Street,,BS2 0EZ,0117 9349726,I am the description,I am the title,yes
BS13 9AQ,-2.614093,51.411381,Barnardos,New Fulford Family Centre 237-239,BS13 9AQ,0117 9782441,I am the description,I am the title,yes
BS13 9AQ,-2.614093,51.411381,Barnardos,New Fulford Family Centre 237-239,BS13 9AQ,0117 9782441,I am the description,I am the title,yes
GL3 4JL,-2.155687,51.846779,Brockworth Children's Centre,Moorfield Road,GL3 4JL,01452 863816,I am the description,I am the title,yes
DY10 3ED,-2.226262,52.381781,Brookside Childrens Centre,Borrington Road,DY10 3ED,01562 827207,I am the description,I am the title,yes
S60 3NW,-1.32294,53.414364,Barnardos Education Centre,158 Broom Lane,S60 3NW,01709 533584,I am the description,I am the title,yes
LS11 8LU,-1.574223,53.758636,"The Orange Shop, U102",White Rose Study Support Centre,LS11 8LU,1132374489,I am the description,I am the title,yes
BB10 1PD,-2.243922,53.80117,Room C102,Northbridge House,BB10 1PD,01282 792395,I am the description,I am the title,yes
BL9 0DZ,-2.300318,53.591511,Bury Childrens Rights,18/20 St Mary's Place,BL9 0DZ,0161 253 6339,I am the description,I am the title,yes
BL9 0DZ,-2.300318,53.591511,Bury Children's Rights,18-20 St. Marys Place,BL9 0DZ,0161 253 6339,I am the description,I am the title,yes
BL9 0DZ,-2.300318,53.591511,Bury Childrens Rights,18/20 St Mary's Place,BL9 0DZ,0161 253 6339,I am the description,I am the title,yes
BL9 0DZ,-2.300318,53.591511,Bury Childrens Rights,18/20 St Mary's Place,BL9 0DZ,0161 253 6339,I am the description,I am the title,yes
NG5 1AW,-1.155258,52.971992,"Barnardos, Sherwood Project",2 Clinton Avenue,NG5 1AW,0115 969 1177,I am the description,I am the title,yes
CF23 5BX,-3.163214,51.495121,44-46 Marlborough Road,,CF23 5BX,029 2049 7531,I am the description,I am the title,yes
SS14 1EH,0.458228,51.571771,Child & Family Consultation Service,Great Oaks,SS14 1EH,01268 247125,I am the description,I am the title,yes
LL41 3UA,-3.935945,52.99361,Caban Bach,Rhes Meirion,LL41 3UA,1766832561,I am the description,I am the title,yes
LL41 3UA,-3.935945,52.99361,Caban Bach,Rhes Meirion,LL41 3UA,1766832546,I am the description,I am the title,yes
CF83 2BW,-3.246405,51.588519,Variety Club,Family Centre,CF83 2BW,2920852550,I am the description,I am the title,yes
NP11 6BH,-3.095251,51.605628,Risca Family Centre,Brookland Road,NP11 6BH,01633 615859,I am the description,I am the title,yes
CF83 2BW,-3.246405,51.588519,Variety Club,Family Centre,CF83 2BW,2920852550,I am the description,I am the title,yes
NP11 6AW,-3.097827,51.60466,Barnardo's,59 Commercial Street,NP11 6AW,01633 612712,I am the description,I am the title,yes
NP11 6AW,-3.097827,51.60466,Barnardo's,59 Commercial Street,NP11 6AW,01633 612712,I am the description,I am the title,yes
CF83 2BW,-3.246405,51.588519,Variety Club,Family Centre,CF83 2BW,01633 612712,I am the description,I am the title,yes
SN11 8TG,-1.994873,51.437313,Calne Children's Centre,Priestley Primary School,SN11 8TG,01249 823247,I am the description,I am the title,yes
PL15 8QE,-4.422476,50.622985,Trethorne Business Park,Kennards House,PL15 8QE,01566 86873,I am the description,I am the title,yes
LE19 4SD,-1.210575,52.596845,"Barnardos, West Point",Feldspar Close,LE19 4SD,0116 2867182,I am the description,I am the title,yes
CA6 5UG,-2.966822,55.010359,Carlisle Rural Sure Start,,CA6 5UG,01228 792130,I am the description,I am the title,yes
CA1 3BX,-2.908026,54.872517,Carlisle South Sure Start Children's Centre,,CA1 3BX,01228 593810,I am the description,I am the title,yes
CA2 6JP,-2.96365,54.885829,Carlisle West Childrens Centre,Wigton Road,CA2 6JP,01228 223417,I am the description,I am the title,yes
SA15 3JE,-4.161032,51.684886,33 Thomas Street,,SA15 3JE,01554 775232,I am the description,I am the title,yes
SA15 3JE,-4.161032,51.684886,33 Thomas Street,,SA15 3JE,01554 775232,I am the description,I am the title,yes
SA15 3JE,-4.161032,51.684886,33 Thomas Street,,SA15 3JE,01554 775232,I am the description,I am the title,yes
CV11 4JJ,-1.458455,52.516446,Barnardos,68-74 Attleborough Road,CV11 4JJ,024 76641206,I am the description,I am the title,yes
CM13 2AZ,0.324934,51.6127,The Knights Way Community Centre,32a Knights Way,CM13 2AZ,01277 220 510,I am the description,I am the title,yes
SS16 5AT,0.453602,51.565725,Relate South Essex Building,4 Cherrydown West,SS16 5AT,01268 532 852,I am the description,I am the title,yes
SK10 9JT,-2.119955,53.307058,PO Box 625,,SK10 9JT,0845 894 3448,I am the description,I am the title,yes
BT9 6EE,-5.9482,54.5808,"Barnardos, Family Resource Centre",23 Windsor Avenue,BT9 6EE,028 90668333,I am the description,I am the title,yes
BT9 6EE,-5.9482,54.5808,23 Windsor Avenue,,BT9 6EE,2890668333,I am the description,I am the title,yes
TS24 7DN,-1.204767,54.687025,Barnardo's Hartlepool Services,76 Church Street,TS24 7DN,1429271571,I am the description,I am the title,yes
G22 5QG,-4.25628,55.882563,CHIP,Ardoch House Room 1/13,G22 5QG,0141 336 8612,I am the description,I am the title,yes
TN2 3QJ,0.284487,51.135935,The Lodge (Ravensdale),Pembury Road,TN2 3QJ,01892 511468,I am the description,I am the title,yes
TN2 3QJ,0.284487,51.135935,The Lodge (Ravensdale),Pembury Road,TN2 3QJ,01892 511468,I am the description,I am the title,yes
BD8 7BS,-1.763391,53.807702,Barnardos,Queens House,BD8 7BS,01274 481183,I am the description,I am the title,yes
BT45 5AY,-6.614,54.7553,36a Westland Road,,BT45 5AY,028 79631344,I am the description,I am the title,yes
BT45 5AY,-6.614,54.7553,36a Westland Road,,BT45 5AY,028 79631344,I am the description,I am the title,yes
LL41 3UA,-3.935945,52.99361,"Caban Bach, Barnardo's",Meirion Terrace,LL41 3UA,01766 832546,I am the description,I am the title,yes
FK1 4RE,-3.827638,55.998133,Barnardos,Watling Lodge,FK1 4RE,01324 632903,I am the description,I am the title,yes
CO7 0AQ,1.02849,51.810347,YMCA,55 High Street,CO7 0AQ,01206 305 536,I am the description,I am the title,yes
CF5 5BS,-3.23436,51.48289,Unit 1,Cowbridge Court,CF5 5BS,029 2057 1910,I am the description,I am the title,yes
CF5 5BS,-3.23436,51.48289,Unit 1,Cowbridge Court,CF5 5BS,029 2057 1910,I am the description,I am the title,yes
CF5 5BS,-3.23436,51.48289,Unit 1,Cowbridge Court,CF5 5BS,029 2057 1910,I am the description,I am the title,yes
CF5 5BS,-3.23436,51.48289,Unit 1,Cowbridge Court,CF5 5BS,029 2057 1910,I am the description,I am the title,yes
CF5 5BS,-3.23436,51.48289,Unit 1,Cowbridge Court,CF5 5BS,029 2057 1910,I am the description,I am the title,yes
CF5 5BS,-3.23436,51.48289,Unit 1,Cowbridge Court,CF5 5BS,029 2057 1910,I am the description,I am the title,yes
SA11 1DL,-3.804454,51.661925,South West Wales Office,1st Floor,SA11 1DL,01639 620945,I am the description,I am the title,yes
LL11 1BU,-2.996916,53.048632,Barnardos Compass Partnership,Bryn Hyfryd,LL11 1BU,01978 315130,I am the description,I am the title,yes
LL11 1BU,-2.996916,53.048632,Barnardos Compass Partnership,Bryn Hyfryd,LL11 1BU,01978 315130,I am the description,I am the title,yes
LL11 1BU,-2.996916,53.048632,Barnardos Compass Partnership,Bryn Hyfryd,LL11 1BU,01978 315130,I am the description,I am the title,yes
LL11 1BU,-2.996916,53.048632,Barnardos Compass Partnership,Bryn Hyfryd,LL11 1BU,01978 315130,I am the description,I am the title,yes
LL11 1BU,-2.996916,53.048632,Barnardos Compass Partnership,Bryn Hyfryd,LL11 1BU,01978 315130,I am the description,I am the title,yes
LL11 1BU,-2.996916,53.048632,Barnardos Compass Partnership,Bryn Hyfryd,LL11 1BU,01978 315130,I am the description,I am the title,yes
AB10 1UQ,-2.121112,57.144617,Barnardos,20 Carden Place,AB10 1UQ,01224 624090,I am the description,I am the title,yes
AB10 1UQ,-2.121112,57.144617,Barnardo's,20 Carden Place,AB10 1UQ,01224 624090,I am the description,I am the title,yes
AB10 1UQ,-2.121112,57.144617,Barnardo's,20 Carden Place,AB10 1UQ,01224 624090,I am the description,I am the title,yes
AB10 1UQ,-2.121112,57.144617,Barnardos,20 Carden Place,AB10 1UQ,01224 624090,I am the description,I am the title,yes
AB10 1UQ,-2.121112,57.144617,Barnardo's,20 Carden Place,AB10 1UQ,01224 624090,I am the description,I am the title,yes
AB10 1UQ,-2.121112,57.144617,Barnardo's,20 Carden Place,AB10 1UQ,01224 624090,I am the description,I am the title,yes
AB10 1UQ,-2.121112,57.144617,Barnardo's,20 Carden Place,AB10 1UQ,01224 624090,I am the description,I am the title,yes
AB10 1UQ,-2.121112,57.144617,Barnardos,20 Carden Place,AB10 1UQ,01224 624090,I am the description,I am the title,yes
AB10 1UQ,-2.121112,57.144617,Barnardo's,20 Carden Place,AB10 1UQ,01224 624090,I am the description,I am the title,yes
CF5 5BS,-3.23436,51.48289,"Barnardos, Combined Family Support Team","Unit 1,Cowbridge Court",CF5 5BS,029 2057 1960,I am the description,I am the title,yes
BN41 2PA,-0.220694,50.843785,55 Drove Road,Portslade,BN41 2PA,01273 295179,I am the description,I am the title,yes
BT80 8PE,-6.744195,54.643573,"Surestart, Loy Buildings",18 Loy Street,BT80 8PE,028 86769994,I am the description,I am the title,yes
HX5 0DF,-1.838104,53.684861,Cornerstone Service,Coronation street,HX5 0DF,01422 371993,I am the description,I am the title,yes
HX5 0DF,-1.838104,53.684861,Barnardos - Cornerstone,Coronation Street,HX5 0DF,01422 371993,I am the description,I am the title,yes
HX5 0DF,-1.838104,53.684861,Barnardos Cornerstone,Coronation Street,HX5 0DF,01422 71993,I am the description,I am the title,yes
HX5 0DF,-1.838104,53.684861,Barnardos Cornerstone,Coronation Street,HX5 0DF,01422 371993,I am the description,I am the title,yes
HX5 0DF,-1.838104,53.684861,Barnardos Cornerstone,Coronation Street,HX5 0DF,01422 371993,I am the description,I am the title,yes
HX5 0DF,-1.838104,53.684861,Barnardos Cornerstone,Coronation Street,HX5 0DF,01422 371993,I am the description,I am the title,yes
HX5 0DF,-1.838104,53.684861,Barnardos - Cornerstone,Coronation Street,HX5 0DF,01422 371993,I am the description,I am the title,yes
PL15 8QE,-4.422476,50.622985,Barnardos,5 Trethorne Business Park,PL15 8QE,01566 86873,I am the description,I am the title,yes
PL15 8QE,-4.422476,50.622985,Barnardos CIVAS,"Unit 5, Trethorne Business Park",PL15 8QE,01566 86873,I am the description,I am the title,yes
PL15 8QE,-4.422476,50.622985,Trethorne Business Park,Kennards House,PL15 8QE,01566 86873,I am the description,I am the title,yes
SN13 0EG,-2.189907,51.436781,Corsham Children's Centre,Kings Avenue,SN13 0EG,01249 716254,I am the description,I am the title,yes
SN14 0JE,-2.132392,51.4621,Redland,Brook St,SN14 0JE,01249 463907,I am the description,I am the title,yes
CV11 4JJ,-1.458455,52.516446,"Unit 8, Albion Court",92 Attleborough Road,CV11 4JJ,02476 372596,I am the description,I am the title,yes
PR2 8JE,-2.712185,53.777021,"Barnardos, Derby House",Lytham Road,PR2 8JE,01772 788993,I am the description,I am the title,yes
1,-3.303133,57.633484,1,,1,1,I am the description,I am the title,yes
LL16 3TL,-3.422035,53.183928,Panton House,Denbigh,LL16 3TL,01745 817216,I am the description,I am the title,yes
LL16 3TL,-3.422035,53.183928,"Cymru, Cyfle Service",1st Floor,LL16 3TL,01745 817 216,I am the description,I am the title,yes
LL16 3TL,-3.422035,53.183928,"Cyfle, Barnardo's Cymru",1st Floor Office,LL16 3TL,01745 817216,I am the description,I am the title,yes
LL16 3TL,-3.422035,53.183928,"Cyfle, Barnardo's Cymru",1st Floor Office,LL16 3TL,01745 817216,I am the description,I am the title,yes
LL16 3TL,-3.422035,53.183928,"Cyfle, Barnardo's Cymru",1st Floor Office,LL16 3TL,01745 817216,I am the description,I am the title,yes
LL16 3TL,-3.422035,53.183928,"Cyfle, Barnardo's Cymru",1st Floor Office,LL16 3TL,01745 817216,I am the description,I am the title,yes
1,-3.303133,57.633484,1,,1,1,I am the description,I am the title,yes
LL18 3HP,-3.482244,53.321455,Social services,64 Brighton Road,LL18 3HP,01824 712205,I am the description,I am the title,yes
LL18 3HP,-3.482244,53.321455,Social services,64 Brighton Road,LL18 3HP,01824 712205,I am the description,I am the title,yes
LL16 3TL,-3.422035,53.183928,1st Floor Office,Panton House,LL16 3TL,01745 817216,I am the description,I am the title,yes
NG5 1AW,-1.155258,52.971992,"Barnardos, Sherwood Project",2 Clinton Avenue,NG5 1AW,0115 969 1177,I am the description,I am the title,yes
NE8 4DP,-1.601872,54.956417,Barnardo's,20 Bewick Road,NE8 4DP,1914784667,I am the description,I am the title,yes
NE8 4DP,-1.601872,54.956417,Barnardos,20 Bewick Road,NE8 4DP,1914784667,I am the description,I am the title,yes
NE8 4DP,-1.601872,54.956417,Barnardos,20 Bewick Road,NE8 4DP,1914784667,I am the description,I am the title,yes
NE8 4DP,-1.601872,54.956417,Barnardo's DAIS Service,20 Bewick Road,NE8 4DP,0191 478 4667,I am the description,I am the title,yes
NE8 4DP,-1.601872,54.956417,Barnardo's,20 Bewick Road,NE8 4DP,1914784667,I am the description,I am the title,yes
NE8 4DP,-1.601872,54.956417,Barnardos,20 Bewick Road,NE8 4DP,0191 478 4667,I am the description,I am the title,yes
NE8 4DP,-1.601872,54.956417,Barnardos,20 Bewick Road,NE8 4DP,0191 478 4667,I am the description,I am the title,yes
DD1 1JU,-2.975625,56.464967,Barnardos Family Support Team,14 Dudhope Street,DD1 1JU,01382 224924,I am the description,I am the title,yes
DD1 1JU,-2.975625,56.464967,Barnardos Family Support Team,14 Dudhope Street,DD1 1JU,01382 224924,I am the description,I am the title,yes
LS10 2JA,-1.535638,53.779058,The Courtyard,"Unit 1, 110-118 Church Street",LS10 2JA,0113 2720832,I am the description,I am the title,yes
HU17 7GA,-0.527505,53.904688,"Barnardos, Unit 5","Village Farm Business Centre, East Street",HU17 7GA,01430 810139,I am the description,I am the title,yes
HU17 7GA,-0.527505,53.904688,"Barnardos, Unit 5","Village Farm Business Centre, East Street",HU17 7GA,01430 810139,I am the description,I am the title,yes
HU17 7GA,-0.527505,53.904688,"Barnardos, Unit 5","Village Farm Business Centre, East Street",HU17 7GA,01430 810139,I am the description,I am the title,yes
HU17 7GA,-0.527505,53.904688,"Barnardos, Unit 5","Village Farm Business Centre, East Street",HU17 7GA,01430 810139,I am the description,I am the title,yes
HU17 7GA,-0.527505,53.904688,"Barnardos, Unit 5","Village Farm Business Centre, East Street",HU17 7GA,01430 810139,I am the description,I am the title,yes
HU17 7GA,-0.527505,53.904688,"Barnardos, Unit 5","Village Farm Business Centre, East Street",HU17 7GA,01430 810139,I am the description,I am the title,yes
HU17 7GA,-0.527505,53.904688,"Barnardos, Unit 5","Village Farm Business Centre, East Street",HU17 7GA,01430 810139,I am the description,I am the title,yes
LS10 2JA,-1.535638,53.779058,"The Courtyard, Unit 1",110-118 Church Street,LS10 2JA,0113 2720832,I am the description,I am the title,yes
DE11 0ER,-1.560626,52.784648,Barnardos Stepping Forward,70-72 Elmsleigh Drive,DE11 0ER,01283 551251,I am the description,I am the title,yes
DE11 0ER,-1.560626,52.784648,Barnardos Stepping Forward,70-72 Elmsleigh Drive,DE11 0ER,01283 551251,I am the description,I am the title,yes
RH10 9NE,-0.17917,51.134083,Unit 1,Satellite Business Village,RH10 9NE,01293 610660,I am the description,I am the title,yes
BT61 9DR,-6.6435,54.350462,Grange Building,Towerhill,BT61 9DR,2837414541,I am the description,I am the title,yes
CO3 9BE,0.852203,51.884071,King George V Pavilion,Clairmont Road,CO3 9BE,01206 560 210,I am the description,I am the title,yes
NE2 2JL,-1.597146,54.988617,Orchard House,Buston Terrace,NE2 2JL,0191 240 4800,I am the description,I am the title,yes
NE2 2JL,-1.597146,54.988617,Orchard House,Buston Terrace,NE2 2JL,0191 240 4800,I am the description,I am the title,yes
DN2 6AY,-1.109704,53.520202,Doncaster School & College for the Deaf,Leger Way,DN2 6AY,01302 366680,I am the description,I am the title,yes
DT1 3WA,-2.461216,50.710376,Barnardos P S A Service,3a Poundbury Business Centre,DT1 3WA,01305 250161,I am the description,I am the title,yes
DT1 3WA,-2.461216,50.710376,Barnardos P S A Service,3a Poundbury Business Centre,DT1 3WA,01305 250161,I am the description,I am the title,yes
DT1 3WA,-2.461216,50.710376,Barnardos,Unit 3a Poundbury Business Centre,DT1 3WA,01305 250161,I am the description,I am the title,yes
BT1 1LT,-5.9292,54.6005,Dr B's Kitchen,9 Bridge Street,BT1 1LT,02890 321213,I am the description,I am the title,yes
HG2 7SR,-1.516712,53.995753,Dr B's Restaurant,13-15 Knaresborough Road,HG2 7SR,01423 884819,I am the description,I am the title,yes
WS5 4HH,-1.967639,52.557307,Barnardos Sandcastle and Dudley Short Breaks,85 Ladbury Road,WS5 4HH,01922 616961,I am the description,I am the title,yes
DD1 1JU,-2.975625,56.464967,Barnardos Family Support Team,14 Dudhope Street,DD1 1JU,01382 224924,I am the description,I am the title,yes
SE19 3AF,-0.082074,51.417426,Heshima,2 Coxwell Road (off Westow Street),SE19 3AF,0208 771 0907,I am the description,I am the title,yes
CF11 6LP,-3.191109,51.480454,Barnardos,7a Neville Street,CF11 6LP,029 2022 9585,I am the description,I am the title,yes
KA1 2AB,-4.500241,55.609379,Barnardos,3 Grange Place,KA1 2AB,01563 530646,I am the description,I am the title,yes
KA1 2AB,-4.500241,55.609379,Barnardos,3 Grange Place,KA1 2AB,01563 530646,I am the description,I am the title,yes
KA1 1AB,-4.485003,55.575966,Barnardos,3 Grange Place,KA1 1AB,01563 530646,I am the description,I am the title,yes
PE1 5JU,-0.228512,52.579377,21 Durham Road,,PE1 5JU,,I am the description,I am the title,yes
SG13 8FL,-0.078933,51.793871,Hertford Police Station,Hale Road,SG13 8FL,01992 533 634,I am the description,I am the title,yes
DE21 7NF,-1.408903,52.914796,"Barnardos, East Midlands Family Placement",The Old Exchange,DE21 7NF,01332 544711,I am the description,I am the title,yes
LA9 6LP,-2.727473,54.330676,42a Grasmere Crescent,,LA9 6LP,01228 888470,I am the description,I am the title,yes
PR2 8JF,-2.714605,53.777465,c/o Barnardo's Moving On,"Ground Floor, West Wing, Derby House",PR2 8JF,01772 788993,I am the description,I am the title,yes
BB1 3HQ,-2.459824,53.749781,c/o Barnardos EOC,"Suite 9, Blackburn Enterprise Centre",BB1 3HQ,01254 504930,I am the description,I am the title,yes
FY2 0JW,-3.021311,53.852661,"c/o Barnardo's, Suite 12",Blackpool Technology Management and Innovation Centre,FY2 0JW,01253 595224,I am the description,I am the title,yes
EH9 2HH,-3.195422,55.928079,Barnardos,91 South Oswald Road,EH9 2HH,0131 662 4997,I am the description,I am the title,yes
EH51 9AY,-3.606036,56.012964,Barnardos Education and Family Support Service (Falkirk),17 Cadzow Crescent,EH51 9AY,01506 823 118,I am the description,I am the title,yes
CF5 5BS,-3.23436,51.48289,"Barnardos, Combined Family Support Team","Unit 1,Cowbridge Court",CF5 5BS,029 2057 1960,I am the description,I am the title,yes
CF5 4LE,-3.244255,51.48126,Barnardos Ely Family Centre,Grand Avenue,CF5 4LE,029 20577074,I am the description,I am the title,yes
NE2 2JL,-1.597146,54.988617,Buston Terrace,,NE2 2JL,0191 240 4800,I am the description,I am the title,yes
E17 7QP,-0.02019,51.581952,Barnardos,1b Priory Avenue,E17 7QP,0208 503 7270,I am the description,I am the title,yes
CM2 0LG,0.472162,51.729926,191-192 Moulsham Street,,CM2 0LG,01245 257395,I am the description,I am the title,yes
CO15 2EX,1.11819,51.774633,Hemmington House,51-53 Broadway,CO15 2EX,1206,I am the description,I am the title,yes
WR14 1SP,-2.316797,52.126729,Evergreen Childrens Centre,215 Worcester Road,WR14 1SP,01684 577289,I am the description,I am the title,yes
M22 9QZ,-2.268329,53.385428,Barnardos,59 Gladeside Road,M22 9QZ,0161 945 4274,I am the description,I am the title,yes
M22 9QZ,-2.268329,53.385428,Barnardos,59 Gladeside Road,M22 9QZ,0161 945 4274,I am the description,I am the title,yes
DD11 1RL,-2.588432,56.558865,Family Group Conference Service,22-24 Catherine Street,DD11 1RL,01241 873146,I am the description,I am the title,yes
BT61 7DY,-6.658381,54.349093,The Doctor's House,39a Abbey Street,BT61 7DY,028 3752 8102,I am the description,I am the title,yes
DE56 1AR,-1.48429,53.022066,De Bradelei Mill house,1st Floor Office Suite,DE56 1AR,01773 825923,I am the description,I am the title,yes
B27 7QA,-1.83545,52.438881,Fox Hollies Childrens Centre,419 Fox Hollies Road,B27 7QA,0121 675 5472,I am the description,I am the title,yes
KY1 1TE,-3.16464,56.098467,Barnardos,Bridge Street,KY1 1TE,01592 265294,I am the description,I am the title,yes
KY1 1TE,-3.16464,56.098467,Barnardos,Bridge Street,KY1 1TE,01592 265294,I am the description,I am the title,yes
KY1 1TE,-3.16464,56.098467,Barnardos,Bridge Street,KY1 1TE,01592 265294,I am the description,I am the title,yes
B7 4PS,-1.87941,52.49068,Barnardos,40 Rupert Street,B7 4PS,0121 359 5333,I am the description,I am the title,yes
CH7 1BH,-3.143729,53.168758,82-84 High Street,,CH7 1BH,01352 755422,I am the description,I am the title,yes
CH7 1BH,-3.143729,53.168758,82-84 High Street,,CH7 1BH,01352 755422,I am the description,I am the title,yes
CH7 1BH,-3.143729,53.168758,82-84 High Street,,CH7 1BH,01352 755422,I am the description,I am the title,yes
CH7 1BH,-3.143729,53.168758,82-84 High Street,,CH7 1BH,01352 755422,I am the description,I am the title,yes
CH7 1BH,-3.143729,53.168758,82-84 High Street,,CH7 1BH,01352 755422,I am the description,I am the title,yes
CH7 1BH,-3.143729,53.168758,82-84 High Street,,CH7 1BH,01352 755422,I am the description,I am the title,yes
CH7 1BN,-3.144056,53.168099,82-84 High Street,,CH7 1BN,01352 755422,I am the description,I am the title,yes
BT4 2AW,-5.8589,54.6014,230c Belmont Road,,BT4 2AW,028 90658105,I am the description,I am the title,yes
BD8 7BS,-1.763391,53.807702,Barnardos,Queens House,BD8 7BS,0870 2408342,I am the description,I am the title,yes
NW10 3UN,-0.2407,51.53885,"Barnardos, The Freeman Family Centre",57 Longstone Avenue,NW10 3UN,0208 965-3977,I am the description,I am the title,yes
SS14 2EQ,0.485436,51.576351,"C/O Greenshoots, Adult Community College",Ely Way,SS14 2EQ,01268 271137,I am the description,I am the title,yes
LS6 3JZ,-1.58588,53.820973,Barnardos,2 Rokeby Gardens,LS6 3JZ,0113 2757314,I am the description,I am the title,yes
LS6 3JZ,-1.58588,53.820973,Barnardos,2 Rokeby Gardens,LS6 3JZ,0113/2757314,I am the description,I am the title,yes
LS6 3JZ,-1.58588,53.820973,Barnardos,2 Rokeby Gardens,LS6 3JZ,0113 2757314,I am the description,I am the title,yes
LS6 3JZ,-1.58588,53.820973,Barnardos,2 Rokeby Gardens,LS6 3JZ,0113 2757314,I am the description,I am the title,yes
LS6 3JZ,-1.58588,53.820973,Barnardos,2 Rokeby Gardens,LS6 3JZ,0113 2757314,I am the description,I am the title,yes
LS6 3JZ,-1.58588,53.820973,Barnardos,2 Rokeby Gardens,LS6 3JZ,0113 2757314,I am the description,I am the title,yes
LS6 3JZ,-1.58588,53.820973,Barnardos,2 Rokeby Gardens,LS6 3JZ,0113 2757314,I am the description,I am the title,yes
FY1 4DP,-3.042194,53.813292,Barnardos Blackpool & North Lancashire Project,16 Bennett Avenue,FY1 4DP,1253626480,I am the description,I am the title,yes
FY1 4DP,-3.042194,53.813292,Barnardos Blackpool & NOrth Lancashire Project,16 Bennett Avenue,FY1 4DP,1253626480,I am the description,I am the title,yes
BT80 8PE,-6.744195,54.643573,Top Floor,Loy Buildings,BT80 8PE,028 86769994,I am the description,I am the title,yes
OL11 4HR,-2.163845,53.613743,Gabriel Court,24 Manchester Road,OL11 4HR,01706 522911,I am the description,I am the title,yes
AB51 3QA,-2.373165,57.281687,Barnardos,31 High Street,AB51 3QA,01467 624334,I am the description,I am the title,yes
CF33 6BJ,-3.685753,51.52646,Davian House,Village Farm Industrial Estate,CF33 6BJ,01656 749235,I am the description,I am the title,yes
CF33 6BJ,-3.685753,51.52646,Davian House,Village Farm Industrial Estate,CF33 6BJ,01656 749235,I am the description,I am the title,yes
GL2 8EY,-2.271358,51.892944,Unit 10,Steadings Business Centre,GL2 8EY,01452 526693,I am the description,I am the title,yes
GL2 8EY,-2.271358,51.892944,"The Steadings Business Centre, Unit 23",Maisemore Court,GL2 8EY,01452 526693,I am the description,I am the title,yes
CF37 3AA,-3.33344,51.6224,58-60 Garth Avenue,Glyncoch,CF37 3AA,01443 405805,I am the description,I am the title,yes
CF37 3AA,-3.33344,51.6224,58-60 Garth Avenue,Glyncoch,CF37 3AA,01443 405805,I am the description,I am the title,yes
TS24 7DN,-1.204767,54.687025,76 Church St,,TS24 7DN,1429424222,I am the description,I am the title,yes
B43 5RR,-1.935656,52.540636,Eastwood Road,,B43 5RR,0121-357-3326,I am the description,I am the title,yes
CO4 3QE,0.936914,51.891394,Greenstead Community Centre,Hawthorn Avenue,CO4 3QE,01206 861950,I am the description,I am the title,yes
SE19 3AF,-0.082074,51.417426,Barnardos,Heshima centre,SE19 3AF,0208 768 5059,I am the description,I am the title,yes
SE19 3AF,-0.082074,51.417426,Heshima,2 Coxwell Road (off Westow Street),SE19 3AF,0208 771 0907,I am the description,I am the title,yes
PR25 2YA,-2.691075,53.695603,Barnardos,1 Dorothy Avenue,PR25 2YA,01772 641002,I am the description,I am the title,yes
DY13 0EL,-2.289792,52.328564,Half Crown Wood Childrens Centre,St. Bartholomews C of E Primary School,DY13 0EL,01299 877920,I am the description,I am the title,yes
WA8 7QE,-2.732959,53.363254,CRMZ,Kingsway,WA8 7QE,0151 257 2520,I am the description,I am the title,yes
E17 7QP,-0.02019,51.581952,Cartel House,1b Priory Avenue,E17 7QP,020 85037270,I am the description,I am the title,yes
LE5 1TG,-1.061588,52.653789,75 Maidenwell Avenue,,LE5 1TG,0116 294 6134/6136,I am the description,I am the title,yes
E17 7QP,-0.02019,51.581952,Barnardos,1b Priory Avenue,E17 7QP,020 8882 9983,I am the description,I am the title,yes
E17 7QP,-0.02019,51.581952,Barnardos,1b Priory Avenue,E17 7QP,020 8882 9983,I am the description,I am the title,yes
B13 9PW,-1.874546,52.440358,Barnardos,Harris House,B13 9PW,0121 449 9011,I am the description,I am the title,yes
CO12 3NS,1.286583,51.939011,Noah's Nursery,Barrack Lane,CO12 3NS,01255 508 040,I am the description,I am the title,yes
EX20 3HB,-4.074839,50.819261,The Hatherleigh Community Centre,Bowling Green Lane,EX20 3HB,01837 811190,I am the description,I am the title,yes
RM1 2JH,0.186052,51.574541,Barnardos Havering Young Carers,24 Victoria Road,RM1 2JH,01708 756618/07,I am the description,I am the title,yes
PA2 7RG,-4.421297,55.829409,Hear 4 U Children's Advocacy Service,12 Lochfield Road,PA2 7RG,0141 884 7896,I am the description,I am the title,yes
LA23 2JX,-2.913422,54.37026,Barnardo's South Lakeland,Lakes Sure Start Children's Centre,LA23 2JX,015394 88035,I am the description,I am the title,yes
HR2 7JE,-2.72019,52.04896,Kindle Centre,Belmont Road,HR2 7JE,01432 378391,I am the description,I am the title,yes
HR2 7JE,-2.72019,52.04896,Kindle Centre,Belmont Road,HR2 7JE,01432 378391,I am the description,I am the title,yes
RG40 1TT,-0.831336,51.41597,"Barnardos, High Close School",High Close,RG40 1TT,0118 9785767,I am the description,I am the title,yes
CO4 9FF,0.918123,51.919031,"The Ark, Highwoods Methodist Church",2 Gavin Way,CO4 9FF,01206 845 557,I am the description,I am the title,yes
B71 3DJ,-1.980155,52.540957,Connor Rd,,B71 3DJ,0121 588 5431,I am the description,I am the title,yes
GL14 2QA,-2.491601,51.825309,Barnardo's,Hilltop Children's Centre,GL14 2QA,01594 827595,I am the description,I am the title,yes
CO15 6BE,1.16461,51.793412,Unit 4,Oxford Road,CO15 6BE,01255 222 503,I am the description,I am the title,yes
BT4 2AW,-5.8589,54.6014,230c Belmont Road,,BT4 2AW,028 90658105,I am the description,I am the title,yes
BN41 2PA,-0.220694,50.843785,55 Drove Road,Portslade,BN41 2PA,01273 295179,I am the description,I am the title,yes
DD11 1RL,-2.588432,56.558865,Barnardos,22-24 Catherine Street,DD11 1RL,01241 873146,I am the description,I am the title,yes
PH1 3BD,-3.448139,56.412597,Almondbank House,Lewis Place,PH1 3BD,01738 472270,I am the description,I am the title,yes
PH1 3BD,-3.448139,56.412597,Almondbank House,Lewis Place,PH1 3BD,01738 472270,I am the description,I am the title,yes
PH1 3BD,-3.448139,56.412597,Almondbank House,Lewis Place,PH1 3BD,01738 472270,I am the description,I am the title,yes
DD11 1RL,-2.588432,56.558865,Barnardo's Hopscotch Project (Angus),22-24 Catherine Street,DD11 1RL,01241 873146,I am the description,I am the title,yes
BT38 8JJ,-5.815286,54.72106,Horizon SureStart,c/o Sunnylands Primary School,BT38 8JJ,028 93 359734,I am the description,I am the title,yes
E1 3JX,-0.048585,51.520532,The Hub Construction Skills Centre,The Rosalind Green Hall,E1 3JX,020 7790 4621,I am the description,I am the title,yes
HU9 3DQ,-0.308273,53.756544,Barnardos,348 Holderness Road,HU9 3DQ,01482 323671,I am the description,I am the title,yes
HU9 3DQ,-0.308273,53.756544,Hull Family Intervention Project,348 Holderness Road,HU9 3DQ,01482 323671,I am the description,I am the title,yes
HU9 3DQ,-0.308273,53.756544,348 Holderness Road,,HU9 3DQ,01482 224230,I am the description,I am the title,yes
BT7 2FZ,-5.9198,54.5785,Barnardos,234 Ormeau Road,BT7 2FZ,028 9064 6515,I am the description,I am the title,yes
PR5 5SB,-2.69533,53.728593,Barnardos,453 Leyland Road,PR5 5SB,01772 629470,I am the description,I am the title,yes
BT27 4AB,-6.0422,54.5143,1 Sackville Street,,BT27 4AB,2892607537,I am the description,I am the title,yes
BT20 3DE,-5.6762,54.6586,40 Manse Road,,BT20 3DE,028 9127 1538,I am the description,I am the title,yes
IG1 4RU,0.069986,51.564299,13 Granville Road,,IG1 4RU,020 8554 2888,I am the description,I am the title,yes
IG1 4RU,0.069986,51.564299,13 Granville Road,,IG1 4RU,020 8554 2888,I am the description,I am the title,yes
IG1 4RU,0.069986,51.564299,13 Granville Road,,IG1 4RU,020 8554 2888,I am the description,I am the title,yes
IG1 4RU,0.069986,51.564299,13 Granville Road,,IG1 4RU,020 8554 2888,I am the description,I am the title,yes
IG1 4RU,0.069986,51.564299,13 Granville Road,,IG1 4RU,020 8554 2888,I am the description,I am the title,yes
IG1 4RU,0.069986,51.564299,13 Granville Road,,IG1 4RU,020 8554 2888,I am the description,I am the title,yes
IG1 4RU,0.069986,51.564299,13 Granville Road,,IG1 4RU,020 8554 2888,I am the description,I am the title,yes
IG1 4RU,0.069986,51.564299,13 Granville Road,,IG1 4RU,020 8554 2888,I am the description,I am the title,yes
IG1 4RU,0.069986,51.564299,13 Granville Road,,IG1 4RU,020 8554 2888,I am the description,I am the title,yes
IG1 4RU,0.069986,51.564299,13 Granville Road,,IG1 4RU,020 8554 2306,I am the description,I am the title,yes
PA15 2UH,-4.720102,55.939626,Unit 12-13,Ladyburn Business Centre,PA15 2UH,01475 743993/743990,I am the description,I am the title,yes
IG6 1QG,0.083692,51.587618,"Barnardos, Head Office",Tanners Lane,IG6 1QG,7903965457,I am the description,I am the title,yes
PO33 3LN,-1.174457,50.723737,Ryde Academy,Pell Lane,PO33 3LN,01983 616607,I am the description,I am the title,yes
BT45 5AY,-6.614,54.7553,36a Westland Road,,BT45 5AY,028 79631344,I am the description,I am the title,no
SN14 0JE,-2.132392,51.4621,Barnardo's,Brook Street,SN14 0JE,01249 463907,I am the description,I am the title,yes
WF16 9ES,-1.672212,53.711037,Kirklees Khandaani Dhek Bhal Service,Heckmondwike Children Centre,WF16 9ES,01924 411713,I am the description,I am the title,yes
WF16 9ES,-1.672212,53.711037,Kirklees Khandaani Dhek Bhal Service,Heckmondwike Children Centre,WF16 9ES,01924 411713,I am the description,I am the title,yes
SS16 4NF,0.48679,51.561492,27 Riverview Court,Vange,SS16 4NF,01268 581 478,I am the description,I am the title,yes
LA9 5PP,-2.7526,54.337407,Kendal West Sure Start Children's Centre,Kendal Green,LA9 5PP,01228 888320,I am the description,I am the title,no
LA9 5PP,-2.7526,54.337407,Barnardo's South Lakeland Service,Kendal West Sure Start Children's Centre,LA9 5PP,01228 888320,I am the description,I am the title,yes
WF16 9ES,-1.672212,53.711037,Kirklees Khandaani Dhek Bal Service,Heckmondwike Children Centre,WF16 9ES,01924 411713,I am the description,I am the title,yes
SS15 5RJ,0.428407,51.58116,Arne Court Hostel,Holst Ave,SS15 5RJ,,I am the description,I am the title,yes
LA23 2JX,-2.913422,54.37026,Lakes Sure Start Children's Centre,Goodly Dale,LA23 2JX,015394 88035,I am the description,I am the title,yes
SE19 3AF,-0.082074,51.417426,Barnardos,Heshima Centre,SE19 3AF,0208 7685059,I am the description,I am the title,yes
SE19 3BG,-0.08663,51.4185,Heshima Family Support Centre,2 Coxwell Road,SE19 3BG,0208 771 0907,I am the description,I am the title,yes
PR5 5SB,-2.69533,53.728593,Barnardos,453 Leyland Road,PR5 5SB,1772629470,I am the description,I am the title,yes
BB1 3HQ,-2.459824,53.749781,Barnardos,Suite 12 Blackburn Enterprise Centre,BB1 3HQ,01254 504930,I am the description,I am the title,yes
CM15 9NG,0.287763,51.63558,Larchwood Primary School,Larchwood Gardens,CM15 9NG,01277 374 912,I am the description,I am the title,yes
GL16 8DU,-2.622451,51.794821,In the grounds of St. Johns School,Bowens Hill Road,GL16 8DU,01594 837927,I am the description,I am the title,yes
BT7 2FZ,-5.9198,54.5785,Barnardos,234 Ormeau Road,BT7 2FZ,028 90644335,I am the description,I am the title,yes
LS18 4LB,-1.63876,53.8313,"Leeds Childrens Rights, Low Wood",Clarence Road,LS18 4LB,0113 2395589,I am the description,I am the title,yes
LS13 3DQ,-1.638768,53.809073,Leeds Family Intervention Service,Family Resource Centre,LS13 3DQ,0113 2557755,I am the description,I am the title,yes
LS10 2JA,-1.535638,53.779058,Barnardo's DSI,The Courtyard,LS10 2JA,0113 272 0832,I am the description,I am the title,yes
SE19 3AF,-0.082074,51.417426,Barnardos,heshima Family centre,SE19 3AF,0208 7685059,I am the description,I am the title,yes
EH9 2HH,-3.195422,55.928079,Barnardos,91 South Oswald Road,EH9 2HH,0131 662 4997,I am the description,I am the title,yes
NG34 7SD,-0.409808,52.9996,lincolnshire Junior Youth Prevntion Programme,The Sessions House,NG34 7SD,01529 308722,I am the description,I am the title,yes
LN2 5RY,-0.527393,53.234094,"Barnardos Lincolnshire Leaving Care Service, Lindum House",Rear Annex Lindum House,LN2 5RY,01522 575955,I am the description,I am the title,yes
CO1 1PB,0.896634,51.888058,Barnardos,54 Head Street,CO1 1PB,01206 362540,I am the description,I am the title,yes
WR14 3SW,-2.301274,52.1048,c/o Sunshine Children's Centre,Bluebell Close,WR14 3SW,1684577442,I am the description,I am the title,yes
AB24 5RE,-2.087707,57.162279,Linksfield Residential Service,165 Linksfield Road,AB24 5RE,01224 637075,I am the description,I am the title,yes
HP6 5RW,-0.654527,51.693697,School House,Hyde Heath,HP6 5RW,01494 773068,I am the description,I am the title,yes
CO3 0QG,0.84182,51.880051,Stanway Fiveways Primary School,Winstree Road,CO3 0QG,01206 216240,I am the description,I am the title,yes
HP6 5RW,-0.654527,51.693697,School House,Hyde Heath,HP6 5RW,01494 773068,I am the description,I am the title,yes
N7 8QJ,-0.111285,51.550523,4a Chillingworth Road,,N7 8QJ,0207 700 2253,I am the description,I am the title,yes
SE19 3AF,-0.082074,51.417426,Barnardos,Heshima Family centre,SE19 3AF,020 8768 5058,I am the description,I am the title,yes
NE12 8QP,-1.582502,55.011303,Longbenton Sure Start Childrens Centre,,NE12 8QP,1912701240,I am the description,I am the title,yes
NE12 8QP,-1.582502,55.011303,Longbenton Sure Start Childrens Centre,,NE12 8QP,1912701240,I am the description,I am the title,yes
EH7 4HX,-3.192557,55.96353,17 Claremont Crescent,,EH7 4HX,0131 556 4583,I am the description,I am the title,yes
LU1 5NP,-0.421686,51.879304,"Luton Borough Council, Unity House",111 Stuart Street,LU1 5NP,7508013723,I am the description,I am the title,yes
IG6 1QG,0.083692,51.587618,"Barnardo's, Cottage 4",Tanners Lane,IG6 1QG,020 8498 7536,I am the description,I am the title,yes
IG6 1QG,0.083692,51.587618,"Barnardo's, Cottage 4",Tanners Lane,IG6 1QG,020 8498 7536,I am the description,I am the title,yes
WR9 0NX,-2.169798,52.284889,"Worcestershire Short Breaks, Prestige House",Wassage Way,WR9 0NX,01905 778275,I am the description,I am the title,yes
TA2 8QN,-3.054778,51.042835,Barnardos,Unit 2 Prockters Farm Offices,TA2 8QN,01823 413688,I am the description,I am the title,yes
CO11 1ER,1.076945,51.945302,Mistley Health Clinic,New Road,CO11 1ER,01206 395284,I am the description,I am the title,yes
CF23 5BX,-3.163214,51.495121,44-46 Marlborough Road,,CF23 5BX,029 2049 7531,I am the description,I am the title,yes
CF23 5BX,-3.163214,51.495121,c/o 44-46 Marlborough Road,,CF23 5BX,029 2049 7531,I am the description,I am the title,yes
CF23 5BX,-3.163214,51.495121,44-46 Marlborough Road,,CF23 5BX,029 2049 7531,I am the description,I am the title,yes
CF23 5BX,-3.163214,51.495121,c/o 44-46 Marlborough Road,Roath,CF23 5BX,2920668184,I am the description,I am the title,yes
CF23 5BX,-3.163214,51.495121,c/o 44-46 Marlborough Road,Roath,CF23 5BX,2920668184,I am the description,I am the title,no
TN4 0QB,0.255989,51.161536,Meadows School,"20  22 London Road,",TN4 0QB,01892 529144,I am the description,I am the title,yes
TN4 0RJ,0.253622,51.164351,Meadows School,London Road,TN4 0RJ,01892 529144,I am the description,I am the title,yes
CF47 9AF,-3.374965,51.755707,PR Unit,Alexander Avenue,CF47 9AF,01685 725173,I am the description,I am the title,yes
CF47 9TG,-3.370477,51.764409,Park Baptist Church Sunday School,10th Avenue,CF47 9TG,01685 376521,I am the description,I am the title,yes
CF47 8UN,-3.376433,51.750142,"Barnardos, Merthyr Partnership",56 High Stree,CF47 8UN,01685 382422,I am the description,I am the title,yes
CF47 8UN,-3.376433,51.750142,"Barnardos, Merthyr Partnership",56 High Stree,CF47 8UN,01685 382422,I am the description,I am the title,no
CF47 8UN,-3.376433,51.750142,"Barnardos, Merthyr Partnership",56 High Street,CF47 8UN,01685 382422,I am the description,I am the title,no
B63 3AB,-2.048437,52.448029,Midlands Region Office,Great Cornbow,B63 3AB,,I am the description,I am the title,yes
DE75 7EB,-1.353779,53.012367,Barnardos,9 Mundy Street,DE75 7EB,01773 717212,I am the description,I am the title,yes
B63 3AB,-2.048437,52.448029,Midlands Region Office,Great Cornbow,B63 3AB,,I am the description,I am the title,yes
CM2 9DG,0.470905,51.720503,Moulsham Infant School,Princes Road,CM2 9DG,07852 948 292,I am the description,I am the title,yes
SM4 6BL,-0.18336,51.387071,St Helier Community Centre,"Room 6, Hill House",SM4 6BL,0208 685 1979,I am the description,I am the title,yes
PR1 8BQ,-2.704415,53.757023,Urban Exchange,Theatre Street,PR1 8BQ,01772 255304,I am the description,I am the title,yes
PR2 8JE,-2.712185,53.777021,"Barnardos, Derby House",Lytham Road,PR2 8JE,01772 788993,I am the description,I am the title,yes
SE19 3AF,-0.082074,51.417426,2 Coxwell Road (off Westow Street),,SE19 3AF,0208 771 0907,I am the description,I am the title,yes
B63 2UX,-2.090189,52.460365,"Barnardos, Blantyre House",4 Barrack Lane,B63 2UX,01384 411722,I am the description,I am the title,yes
DN31 2AW,-0.09464,53.563091,Barnardos Keyworker Service,11 Dudley Street,DN31 2AW,01472 324930,I am the description,I am the title,yes
DH2 1AN,-1.58689,54.87153,Barnardo's Fostering and Adoption NE,1 Lumley Court,DH2 1AN,0191 492 9000,I am the description,I am the title,yes
DH2 1AN,-1.58689,54.87153,Barnardo's Fostering and Adoption NE,1 Lumley Court,DH2 1AN,0191 492 9000,I am the description,I am the title,yes
DH2 1AN,-1.58689,54.87153,Barnardo's Fostering and Adoption NE,1 Lumley Court,DH2 1AN,0191 492 9000,I am the description,I am the title,yes
BT32 4AA,-6.269,54.3537,Barnardos,10 Church Street,BT32 4AA,2840628758,I am the description,I am the title,yes
OL16 2UP,-2.139599,53.622636,Unit 9 Unique Enterprise Centre,Belfield Rd,OL16 2UP,01706 515717,I am the description,I am the title,yes
GL6 0DU,-2.219127,51.694774,Nailsworth Library,Old Market,GL6 0DU,01453 832747,I am the description,I am the title,yes
SA11 1LE,-3.804422,51.65894,19-20 London Road,,SA11 1LE,01639 620 771,I am the description,I am the title,yes
SA11 1LE,-3.804422,51.65894,19-20 London Road,,SA11 1LE,01639 620 771,I am the description,I am the title,yes
SA11 1LE,-3.804422,51.65894,19 - 20 London Road,,SA11 1LE,01639 620 771,I am the description,I am the title,yes
SA11 1LE,-3.804422,51.65894,19 - 20 London Road,,SA11 1LE,01639 620 771,I am the description,I am the title,yes
SA11 1LE,-3.804422,51.65894,19 - 20 London Road,,SA11 1LE,01639 620 771,I am the description,I am the title,yes
CF11 6LP,-3.191109,51.480454,"Barnardo's Neville Street Service,","7a Neville Street,",CF11 6LP,029 2022 9585,I am the description,I am the title,yes
CF11 6LP,-3.191109,51.480454,"Barnardo's Neville Street Service,","7a Neville Street,",CF11 6LP,029 2022 9585,I am the description,I am the title,yes
CF11 6LP,-3.191109,51.480454,"Barnardo's Neville Street Service,","7a Neville Street,",CF11 6LP,029 2022 9585,I am the description,I am the title,yes
AB51 3QA,-2.373165,57.281687,Barnardos,31 High Street,AB51 3QA,01467 624334,I am the description,I am the title,yes
CO2 7RY,0.911969,51.8799,St. Stephens Church Centre,Canterbury Road,CO2 7RY,01206 619 318,I am the description,I am the title,yes
NE2 2JL,-1.597146,54.988617,Orchard House,Buston Terrace,NE2 2JL,1912404811,I am the description,I am the title,yes
NP20 2AF,-2.988814,51.582422,114 Lower Dock Street,,NP20 2AF,01633 264463,I am the description,I am the title,yes
NP20 2AF,-2.988814,51.582422,114 Lower Dock Street,,NP20 2AF,01633 264463,I am the description,I am the title,yes
NP20 2AF,-2.988814,51.582422,Barnardo's,114 Lower Dock Street,NP20 2AF,01633 251192,I am the description,I am the title,yes
1,-3.303133,57.633484,1,,1,1,I am the description,I am the title,yes
1,-3.303133,57.633484,1,,1,1,I am the description,I am the title,yes
NP20 2AF,-2.988814,51.582422,Barnardo's Newport Young Carers,114 Lower Dock Street,NP20 2AF,01633 251192,I am the description,I am the title,yes
NP20 2AF,-2.988814,51.582422,Barnardo's Newport Young Carers,114 Lower Dock Street,NP20 2AF,01633 251192,I am the description,I am the title,yes
NP20 2AF,-2.988814,51.582422,Barnardo's,114 Lower Dock Street,NP20 2AF,01633 251192,I am the description,I am the title,yes
BT35 6DY,-6.3437,54.1826,Lisdrum House,Chequer Hill,BT35 6DY,2830260668,I am the description,I am the title,yes
BT37 9AD,-5.909727,54.659445,Newtownabbey Community High School,Rathcoole Drive,BT37 9AD,02890 364688/364076,I am the description,I am the title,yes
GL20 5RQ,-2.152848,51.99389,Barnardo's,Noah's Ark Children's Centre,GL20 5RQ,01684 294174/276361,I am the description,I am the title,yes
GL20 5HU,-2.155579,51.983619,Noah's Ark Children's Centre,York Road,GL20 5HU,01674 276361,I am the description,I am the title,yes
CA7 9SA,-3.175444,54.823823,10-12 Wampool Place,,CA7 9SA,1900819190,I am the description,I am the title,yes
KA13 6EU,-4.698202,55.648102,Barnardos North Ayrshire Families Service,2a Nethermains Road,KA13 6EU,01294 550400,I am the description,I am the title,yes
CA11 8ET,-2.749078,54.662395,The Regent,Old London Road,CA11 8ET,1768899022,I am the description,I am the title,yes
CA11 8ET,-2.749078,54.662395,North Eden Children's Centre,The Regent,CA11 8ET,1769899022,I am the description,I am the title,yes
ML1 3HU,-3.995231,55.790678,Barnardos Suite V,Town Hall Business Centre 1-11,ML1 3HU,01698 254951,I am the description,I am the title,yes
E1 3JX,-0.048585,51.520532,The Hub Construction Skills Centre,The Rosalind Green Hall,E1 3JX,020 7790 4621,I am the description,I am the title,yes
BS23 1TR,-2.976905,51.346442,Oxford Chambers,55b Oxford Street,BS23 1TR,01934 415374,I am the description,I am the title,yes
BS23 1TR,-2.976905,51.346442,Oxford Chambers,55b Oxford Street,BS23 1TR,01934 415374,I am the description,I am the title,yes
CA13 0PN,-3.406693,54.686974,Barnardos,Dovenby Hall,CA13 0PN,0845 8949509,I am the description,I am the title,yes
PR2 8JE,-2.712185,53.777021,"Barnardos, Derby House",Lytham Road,PR2 8JE,0845 8949509,I am the description,I am the title,yes
M6 8AL,-2.318634,53.489778,222 Eccles Old Road,,M6 8AL,0845 8949509,I am the description,I am the title,yes
L25 2UD,-2.863945,53.388939,5 Lineside Close,,L25 2UD,0845 8949509,I am the description,I am the title,yes
BL9 9SH,-2.294366,53.572066,521 Manchester Road,,BL9 9SH,0161 766 9262,I am the description,I am the title,yes
BL9 6LD,-2.273677,53.599907,Flat 3,Rachel House,BL9 6LD,0161 763 6262,I am the description,I am the title,yes
SS13 1QX,0.508926,51.582236,Davenants,,SS13 1QX,,I am the description,I am the title,yes
GL20 8PT,-2.11186,52.003638,Northway/Ashchurch Children's Centre,Virginia Road,GL20 8PT,01684 275826/276361,I am the description,I am the title,yes
EX20 1PW,-3.999866,50.736588,Okehampton Area Childrens Centre,Okehampton Community College,EX20 1PW,01837 658621,I am the description,I am the title,yes
B68 8JE,-2.000899,52.494067,Sure Start Rood End,Greenwood Avenue,B68 8JE,0121 552 9248,I am the description,I am the title,yes
NE2 2AN,-1.604305,54.99166,Barnardos,75 Osborne Road,NE2 2AN,0119 2120237,I am the description,I am the title,yes
NE2 2AN,-1.604305,54.99166,Barnardos,75 Osborne Road,NE2 2AN,0191 2120237,I am the description,I am the title,yes
NE2 2AN,-1.604305,54.99166,Barnardos,75 Osborne Road,NE2 2AN,0191 2120237,I am the description,I am the title,yes
NE2 2AN,-1.604305,54.99166,Barnardos,75 Osborne Road,NE2 2AN,0119 2120237,I am the description,I am the title,yes
NE2 2AN,-1.604305,54.99166,Barnardos,75 Osborne Road,NE2 2AN,0119 2120237,I am the description,I am the title,yes
NE2 2AN,-1.604305,54.99166,Barnardos,75 Osborne Road,NE2 2AN,0191 2120237,I am the description,I am the title,yes
NE2 2AN,-1.604305,54.99166,Barnardos Orchard Mosaic Service,75 Osborne Road,NE2 2AN,0191 2120237,I am the description,I am the title,yes
NE2 2AN,-1.604305,54.99166,Barnardos,75 Osborne Road,NE2 2AN,0191 2120237,I am the description,I am the title,yes
NE1 7BJ,-1.61369,54.974563,Brunswick Methodist Church,Brunswick Place,NE1 7BJ,0191 2210836,I am the description,I am the title,yes
NE2 2AN,-1.604305,54.99166,Barnardos,75 Osborne Road,NE2 2AN,0191 2120237,I am the description,I am the title,yes
NE2 2AN,-1.604305,54.99166,Barnardos Orchard Mosaic,75 Osborne Road,NE2 2AN,0191 2120237,I am the description,I am the title,yes
BT34 2BX,-6.337139,54.172582,15,ST Colemans Park,BT34 2BX,2830263135,I am the description,I am the title,yes
FK2 0AB,-3.732619,55.9836,Youth Work Service,HMYOI POLMONT Activities 2,FK2 0AB,01324 722310,I am the description,I am the title,yes
FK3 9DL,-3.71269,56.01372,Barnardo's Oxgang Family Support Service,Oxgang School and Support Services,FK3 9DL,01324 501311,I am the description,I am the title,yes
BT9 6EE,-5.9482,54.5808,Barnardos P A C T,25 Windsor Avenue,BT9 6EE,2890682286,I am the description,I am the title,yes
BT9 6EE,-5.9482,54.5808,Barnardos P A C T,25 Windsor Avenue,BT9 6EE,2890682286,I am the description,I am the title,yes
G1 3LN,-4.256198,55.860221,91 Mitchell Street,,G1 3LN,0141 243 2393,I am the description,I am the title,yes
G1 3LN,-4.256198,55.860221,91 Mitchell Street,,G1 3LN,0141 243 2393,I am the description,I am the title,yes
BT9 6EE,-5.9482,54.5808,Barnardos,23 Windsor Avenue,BT9 6EE,02890 663 470,I am the description,I am the title,yes
BT32 4HZ,-6.25999,54.34513,10 Church Street,,BT32 4HZ,028 40 623 872,I am the description,I am the title,yes
SP10 1NS,-1.475293,51.218188,Unit 5,Westmarch Business Centre,SP10 1NS,01264 356063,I am the description,I am the title,yes
GL6 6RQ,-2.196947,51.787736,in the grounds of The Croft School,Churchill Way,GL6 6RQ,01453 755373,I am the description,I am the title,yes
NE12 9SZ,-1.543462,55.020491,Unit 27 North Tyne Industrial Estate,Whitley Road,NE12 9SZ,1912701133,I am the description,I am the title,yes
N7 8QJ,-0.111285,51.550523,4a Chillingworth Road,,N7 8QJ,020 7700 2253,I am the description,I am the title,yes
BT27 4AB,-6.0422,54.5143,1 Sackville Street,,BT27 4AB,2892607537,I am the description,I am the title,yes
DN31 2AW,-0.09464,53.563091,Parent Partnership Service,11 Dudley Street,DN31 2AW,01472 325609,I am the description,I am the title,yes
SS17 7BW,0.440731,51.522098,Abbots Hall Children's Centre,Abbotts Drive,SS17 7BW,01375 673 702,I am the description,I am the title,yes
BT7 2FZ,-5.9198,54.5785,234 Ormeau Road,,BT7 2FZ,028 90644335,I am the description,I am the title,yes
GL5 1NL,-2.196963,51.744912,in the grounds ofSevern View Primary Academy,Bisley Old Road,GL5 1NL,01453 755373,I am the description,I am the title,yes
DN31 1NX,-0.081147,53.566606,Ground Floor,Provincial House,DN31 1NX,01472 347272,I am the description,I am the title,yes
B61 8LW,-2.067457,52.339617,Pear Tree Childrens Centre,Broad Street,B61 8LW,01527 835775,I am the description,I am the title,yes
SE19 3BG,-0.08663,51.4185,C/o Heshima Family Support Centre,2 Coxwell Road,SE19 3BG,0208 771 0907,I am the description,I am the title,yes
SA72 6XB,-4.9453,51.692255,Pembrokeshire Family Link Service,3-5 Bush Street,SA72 6XB,01646 687064,I am the description,I am the title,yes
SA72 6XB,-4.9453,51.692255,Pembrokeshire Family Link Service,3-5 Bush Street,SA72 6XB,01646 687064,I am the description,I am the title,yes
BB9 7LG,-2.215517,53.83697,Nelson Town Hall,Policy Unit,BB9 7LG,01282 615347,I am the description,I am the title,yes
FK2 0AB,-3.732619,55.9836,Plan-B Co-ordinators (Cornton Vale),"c/o HMYOI Polmont, Plan-B Office,",FK2 0AB,01324 722624,I am the description,I am the title,yes
FK2 0AB,-3.732619,55.9836,Plan B Service,"HMYOI Polmont, Blair House",FK2 0AB,01324 722624,I am the description,I am the title,yes
BT4 2AW,-5.8589,54.6014,230c Belmont Road,,BT4 2AW,028 90658105,I am the description,I am the title,yes
PL3 4BB,-4.160899,50.382096,Room 112,City Business Park,PL3 4BB,01752 564572,I am the description,I am the title,yes
PO1 2DP,-1.089591,50.797062,Navigators Resource Centre,36-40 Isambard Brunel Road,PO1 2DP,,I am the description,I am the title,yes
SO30 4QU,-1.304321,50.913313,Post Office Chambers,St. Johns Centre,SO30 4QU,01489 796684,I am the description,I am the title,yes
SO30 4QU,-1.304321,50.913313,Post Office Chambers,St. Johns Centre,SO30 4QU,01489 796684,I am the description,I am the title,yes
SY16 1HW,-3.330542,52.505751,Powys Services,359-360 Skylark Way,SY16 1HW,01686 623204,I am the description,I am the title,yes
SY16 3HW,-3.380772,52.523238,Powys Services,359-360 Skylark Way,SY16 3HW,01686 623204,I am the description,I am the title,yes
SY16 1HW,-3.330542,52.505751,359-360 Skylark Way,,SY16 1HW,01686 623204,I am the description,I am the title,yes
SY16 1HW,-3.330542,52.505751,Powys Services,359-360 Skylark Way,SY16 1HW,01686 623204,I am the description,I am the title,yes
PR2 8JE,-2.712185,53.777021,"Barnardos, Derby House",Lytham Road,PR2 8JE,01772 788775,I am the description,I am the title,yes
S71 5PN,-1.438217,53.558015,Priory Campus,Pontefract Road,S71 5PN,01226 770619,I am the description,I am the title,yes
S71 5PN,-1.438217,53.558015,Priory Campus,Pontefract Road,S71 5PN,01226 770619,I am the description,I am the title,yes
S71 5PN,-1.438217,53.558015,Priory Campus,Pontefract Road,S71 5PN,01226 770619,I am the description,I am the title,yes
S71 5PN,-1.438217,53.558015,Priory Campus,Pontefract Road,S71 5PN,01226 770619,I am the description,I am the title,yes
S71 5PN,-1.438217,53.558015,Priory Campus,Pontefract Road,S71 5PN,01226 770619,I am the description,I am the title,yes
S71 5PN,-1.438217,53.558015,Priory Campus,Pontefract Road,S71 5PN,01226 770619,I am the description,I am the title,yes
S71 5PN,-1.438217,53.558015,Priory Campus,Pontefract Road,S71 5PN,01226 770619,I am the description,I am the title,yes
S71 5PN,-1.438217,53.558015,Priory Campus,Pontefract Road,S71 5PN,01226 770619,I am the description,I am the title,yes
S8 7HN,-1.486032,53.320355,Gresley Road Family Centre,Gresley Road,S8 7HN,0114 237 7465,I am the description,I am the title,yes
S8 7HN,-1.486032,53.320355,Gresley Road Family Centre,Gresley Road,S8 7HN,0114 237 7465,I am the description,I am the title,yes
S71 5PN,-1.438217,53.558015,Priory Campus,Pontefract Road,S71 5PN,01226 770619,I am the description,I am the title,yes
S71 5PN,-1.438217,53.558015,Priory Campus,Pontefract Road,S71 5PN,01226 770619,I am the description,I am the title,yes
BT4 2AW,-5.8589,54.6014,230b Belmont Road,,BT4 2AW,02890 652288,I am the description,I am the title,yes
M15 6NP,-2.241562,53.461312,Protect Service,Greenheys Police Station,M15 6NP,0161 226 3060,I am the description,I am the title,yes
BT9 6EE,-5.9482,54.5808,"Barnardos, Family Resource Centre",23 Windsor Avenue,BT9 6EE,028 9066 8766,I am the description,I am the title,yes
GL2 4PE,-2.277649,51.826774,Bristol Road,Quedgeley,GL2 4PE,01452 526856,I am the description,I am the title,yes
BD8 7BS,-1.763391,53.807702,Barnardos,Queens House,BD8 7BS,01274 481183,I am the description,I am the title,yes
BD8 7BS,-1.763391,53.807702,Barnardos,Queens House,BD8 7BS,01274 481183,I am the description,I am the title,yes
BD8 7BS,-1.763391,53.807702,Barnardos,Queens House,BD8 7BS,01274 481183,I am the description,I am the title,yes
BD8 7BS,-1.763391,53.807702,Barnardos,Queens House,BD8 7BS,01274 481183,I am the description,I am the title,yes
HP13 5BW,-0.748717,51.637002,2 Hamilton Road,,HP13 5BW,01494 - 461112,I am the description,I am the title,yes
HP13 5BW,-0.748717,51.637002,2 Hamilton Road,,HP13 5BW,01494 - 461112,I am the description,I am the title,yes
HP13 5BW,-0.748717,51.637002,2 Hamilton Road,,HP13 5BW,01494 - 461112,I am the description,I am the title,yes
EH9 1RG,-3.176666,55.936589,7 Minto Street,,EH9 1RG,1316678208,I am the description,I am the title,yes
CO14 8AW,1.271578,51.848388,13 Old Pier Street,,CO14 8AW,01255 850 859,I am the description,I am the title,yes
TN2 3ND,0.284863,51.136306,Barnardos,Ravensdale Day Care Centre,TN2 3ND,01892 543062,I am the description,I am the title,yes
TN2 3ND,0.284863,51.136306,Barnardos,Ravensdale Day Care Centre,TN2 3ND,01892 543062,I am the description,I am the title,yes
TN2 3ND,0.284863,51.136306,Barnardos,Ravensdale Day Care Centre,TN2 3ND,01892 543062,I am the description,I am the title,yes
TN2 3ND,0.284863,51.136306,Barnardos,Ravensdale Day Care Centre,TN2 3ND,01892 543062,I am the description,I am the title,yes
LS7 3DU,-1.533257,53.814569,Leeds Reach @ Barnardos,191-193 Chapeltown Road,LS7 3DU,0113 2374489,I am the description,I am the title,yes
TS24 7DN,-1.204767,54.687025,Barnardo's Hartlepool Services,76 Church Street,TS24 7DN,1429271571,I am the description,I am the title,yes
RG2 7QA,-0.96273,51.43285,South Reading Youth & Community Centre,252/260 Northumberland Road,RG2 7QA,01189 863571 /64585,I am the description,I am the title,yes
BT4 3HE,-5.8515,54.5947,Barnardos,542-544 Upper Newtownards Road,BT4 3HE,2890672366,I am the description,I am the title,yes
LS7 3DU,-1.533257,53.814569,Leeds Reach @ Barnardos,191-193 Chapeltown Road,LS7 3DU,0113 2374489,I am the description,I am the title,yes
WR9 0NX,-2.169798,52.284889,"Worcestershire Short Breaks, Prestige House",Wassage Way,WR9 0NX,01905 778275,I am the description,I am the title,yes
B98 8NN,-1.92511,52.30785,Redditch wheels,The Brook Building (Rear of the building),B98 8NN,01527 592621,I am the description,I am the title,yes
B98 8NN,-1.92511,52.30785,Redditch wheels,The Brook Building (Rear of the building),B98 8NN,01527 592621,I am the description,I am the title,yes
B98 8NN,-1.92511,52.30785,Redditch wheels,The Brook Building (Rear of the building),B98 8NN,01527 592621,I am the description,I am the title,yes
B98 8NN,-1.92511,52.30785,Redditch wheels,The Brook Building (Rear of the building),B98 8NN,01527 592621,I am the description,I am the title,yes
B98 8NN,-1.92511,52.30785,Redditch wheels (The rear of the building),The Brook Building,B98 8NN,01527 592621,I am the description,I am the title,yes
SN14 0JE,-2.132392,51.4621,Redland Nursery,Brook Street,SN14 0JE,01249 463907,I am the description,I am the title,yes
PA2 7RG,-4.421297,55.829409,Barnardo's,12 Lochfield Road,PA2 7RG,0141 884 6252,I am the description,I am the title,yes
BT4 2AW,-5.8589,54.6014,230b Belmont Road,,BT4 2AW,028 9065 8511,I am the description,I am the title,yes
CF37 2DS,-3.339289,51.606019,21 Morgan Street,,CF37 2DS,01443 402 089,I am the description,I am the title,yes
CF37 2DS,-3.339289,51.606019,21 Morgan Street,,CF37 2DS,01443 402 089,I am the description,I am the title,yes
GL15 5AU,-2.517542,51.726386,Naas Lane,,GL15 5AU,01594 842589,I am the description,I am the title,yes
DY12 1BL,-2.305436,52.373466,Riverside Children's Centre,Stourport Road,DY12 1BL,01299 409169,I am the description,I am the title,yes
OL16 2UP,-2.139599,53.622636,Barnardos,Unique Mill Enterprise Centre,OL16 2UP,01706 515717,I am the description,I am the title,yes
OL16 2UP,-2.139599,53.622636,Unique Enterprise Centre,Belfield Rd,OL16 2UP,01706 515717,I am the description,I am the title,yes
OL16 2UP,-2.139599,53.622636,Barnardos,Unique Mill Enterprise Centre,OL16 2UP,01706 515717,I am the description,I am the title,yes
OL16 2UP,-2.139599,53.622636,Barnardos,Unique Mill Enterprise Centre,OL16 2UP,01706 515717,I am the description,I am the title,yes
OL16 2UP,-2.139599,53.622636,Unit 7 Unique Enterprise Centre,Belfield Rd,OL16 2UP,01706 515717,I am the description,I am the title,yes
OL11 4HR,-2.163845,53.613743,Gabriels Court,24 Manchester Road,OL11 4HR,01706 522911,I am the description,I am the title,yes
OL11 4HR,-2.163845,53.613743,Gabriels Court,24 Manchester Road,OL11 4HR,01706 522911,I am the description,I am the title,yes
OL11 4HR,-2.163845,53.613743,Gabriels Court,24 Manchester Road,OL11 4HR,01706 522911,I am the description,I am the title,yes
OL16 2UP,-2.139599,53.622636,Barnardos,Unique Mill Enterprise Centre,OL16 2UP,01706 515717,I am the description,I am the title,yes
DD2 2LQ,-2.994438,56.462608,Polepark Family Services,3 Fleuchar Street,DD2 2LQ,01382 432631,I am the description,I am the title,yes
S60 2AB,-1.35454,53.425919,Barnardos,10 Nightingale Court,S60 2AB,01709 377157,I am the description,I am the title,yes
S62 7JD,-1.349766,53.470513,Rowan Centre,Estate Road,S62 7JD,01709 523407,I am the description,I am the title,yes
S62 7JD,-1.349766,53.470513,Rowan Centre,Estate Road,S62 7JD,01709 523407,I am the description,I am the title,yes
LL77 7LP,-4.295292,53.259064,Canolfan Plant,Ffordd y Coleg,LL77 7LP,01248 751194,I am the description,I am the title,yes
LL77 7LP,-4.295292,53.259064,Canolfan Plant,Ffordd y Coleg,LL77 7LP,01248 751194,I am the description,I am the title,yes
PO33 3LN,-1.174457,50.723737,Ryde Academy,The Bungalow,PO33 3LN,01983 616607,I am the description,I am the title,yes
G1 3LN,-4.256198,55.860221,Barnardos,91 Mitchell Street,G1 3LN,0141 243 2393,I am the description,I am the title,yes
TS18 3NJ,-1.32184,54.560131,Catalyst Building,27 Yarm Road,TS18 3NJ,01642 604593,I am the description,I am the title,yes
TS5 5BA,-1.251067,54.563219,S E C O S,East West Centre,TS5 5BA,01642 819743,I am the description,I am the title,yes
DL1 5PW,-1.55538,54.524026,Pease House,12a Horsemarket,DL1 5PW,01325 406024,I am the description,I am the title,yes
TS5 5BA,-1.251067,54.563219,S E C O S,East West Centre,TS5 5BA,01642 819743,I am the description,I am the title,yes
TS5 5BA,-1.251067,54.563219,S E C O S,East West Centre,TS5 5BA,01642 819743,I am the description,I am the title,yes
TS5 5BA,-1.251067,54.563219,S E C O S,East West Centre,TS5 5BA,01642 819743,I am the description,I am the title,yes
TS5 5BA,-1.251067,54.563219,S E C O S,East West Centre,TS5 5BA,01642 819743,I am the description,I am the title,yes
TS5 5BA,-1.251067,54.563219,S E C O S,East West Centre,TS5 5BA,01642 819743,I am the description,I am the title,yes
TS5 5BA,-1.251067,54.563219,S E C O S,East West Centre,TS5 5BA,01642 819743,I am the description,I am the title,yes
BT27 4AB,-6.0422,54.5143,1 Sackville Street,,BT27 4AB,2892607537,I am the description,I am the title,yes
TW9 2TE,-0.300429,51.466711,"Room 161, Block D",Richmond Royal Hospital,TW9 2TE,0208 948 5132,I am the description,I am the title,yes
B77 2ED,-1.663812,52.621966,Barnardos,62 Caledonian,B77 2ED,01827 286643,I am the description,I am the title,yes
B7 4PS,-1.87941,52.49068,Barnardos,40 Rupert Street,B7 4PS,0121 359 5333,I am the description,I am the title,yes
DD2 2TF,-3.022042,56.477666,Dryburgh Education Centre,Old Dryburgh School Building,DD2 2TF,01382 436621,I am the description,I am the title,yes
PL15 8QE,-4.422476,50.622985,5 Trethorne Business Park,Kennards House,PL15 8QE,01566 86873,I am the description,I am the title,yes
BT4 2AW,-5.8589,54.6014,230b Belmont Road,,BT4 2AW,028 9065 8511,I am the description,I am the title,yes
G1 3LN,-4.256198,55.860221,Barnardos,91 Mitchell Street,G1 3LN,0141 243 2393,I am the description,I am the title,yes
G1 3LN,-4.256198,55.860221,Barnardos,91 Mitchell Street,G1 3LN,0141 243 2393,I am the description,I am the title,yes
M8 8AL,-2.233836,53.504872,Safer Futures Sexual Abuse Therapeutic & Assessment Service,222 Eccles Old Road,M8 8AL,0161 707 0222,I am the description,I am the title,yes
LE2 6QW,-1.135878,52.601708,St. Christophers,The Crossway,LE2 6QW,1162221810,I am the description,I am the title,yes
M6 8AL,-2.318634,53.489778,222 Eccles Old Road,,M6 8AL,0161 786 1459,I am the description,I am the title,yes
WS5 4HH,-1.967639,52.557307,Barnardos Sandcastle and Dudley Short Breaks,85 Ladbury Road,WS5 4HH,01922 616961,I am the description,I am the title,yes
WS5 4HH,-1.967639,52.557307,Barnardos Sandcastle and Dudley Short Breaks,85 Ladbury Road,WS5 4HH,01922 616961,I am the description,I am the title,yes
WS5 4HH,-1.967639,52.557307,Barnardos Sandcastle and Dudley Short Breaks,85 Ladbury Road,WS5 4HH,01922 616961,I am the description,I am the title,yes
TS24 7DN,-1.204767,54.687025,Barnardo's Hartlepool Services,76 Church Street,TS24 7DN,01429 424222,I am the description,I am the title,yes
BT7 2FZ,-5.9198,54.5785,Barnardos,234 Ormeau Road,BT7 2FZ,2890645425,I am the description,I am the title,yes
BT7 2FZ,-5.9198,54.5785,Barnardos,234 Ormeau Road,BT7 2FZ,2890645425,I am the description,I am the title,yes
BT7 2FZ,-5.9198,54.5785,Barnardos,234 Ormeau Road,BT7 2FZ,2890645425,I am the description,I am the title,yes
BT7 2FZ,-5.9198,54.5785,Barnardos,234 Ormeau Road,BT7 2FZ,2890645425,I am the description,I am the title,yes
BT7 2FZ,-5.9198,54.5785,Barnardos,234 Ormeau Road,BT7 2FZ,2890645425,I am the description,I am the title,yes
BT7 2FZ,-5.9198,54.5785,Barnardos,234 Ormeau Road,BT7 2FZ,2890645425,I am the description,I am the title,yes
BT7 2FZ,-5.9198,54.5785,Barnardos,234 Ormeau Road,BT7 2FZ,2890645425,I am the description,I am the title,yes
BT7 2FZ,-5.9198,54.5785,Barnardos,234 Ormeau Road,BT7 2FZ,2890645425,I am the description,I am the title,yes
BT7 2FZ,-5.9198,54.5785,Barnardos,234 Ormeau Road,BT7 2FZ,2890645425,I am the description,I am the title,yes
BT7 2FZ,-5.9198,54.5785,Barnardos,234 Ormeau Road,BT7 2FZ,2890645425,I am the description,I am the title,yes
BT7 2FZ,-5.9198,54.5785,Barnardos,234 Ormeau Road,BT7 2FZ,2890645425,I am the description,I am the title,yes
BT7 2FZ,-5.9198,54.5785,Barnardos,234 Ormeau Road,BT7 2FZ,2890645425,I am the description,I am the title,yes
BT7 2FZ,-5.9198,54.5785,Barnardos,234 Ormeau Road,BT7 2FZ,2890645425,I am the description,I am the title,yes
BT7 2FZ,-5.9198,54.5785,Barnardos,234 Ormeau Road,BT7 2FZ,2890645425,I am the description,I am the title,yes
BT7 2FZ,-5.9198,54.5785,Barnardos,234 Ormeau Road,BT7 2FZ,2890645425,I am the description,I am the title,yes
BT7 2FZ,-5.9198,54.5785,Barnardos,234 Ormeau Road,BT7 2FZ,2890645425,I am the description,I am the title,yes
BT7 2FZ,-5.9198,54.5785,Barnardos,234 Ormeau Road,BT7 2FZ,2890645425,I am the description,I am the title,yes
BT7 2FZ,-5.9198,54.5785,Barnardos,234 Ormeau Road,BT7 2FZ,2890645425,I am the description,I am the title,yes
DD11 1RL,-2.588432,56.558865,Self Harm Initiative,22 - 24 Catherine Street,DD11 1RL,01241 873146,I am the description,I am the title,yes
CF23 5BX,-3.163214,51.495121,46 Marlborough Road,Roath,CF23 5BX,2920491743,I am the description,I am the title,yes
NG5 1AW,-1.155258,52.971992,"Barnardos, Sherwood Project",2 Clinton Avenue,NG5 1AW,0115 969 1177,I am the description,I am the title,yes
BD8 7BS,-1.763391,53.807702,Queens House,Queens Road,BD8 7BS,0870 2408342,I am the description,I am the title,yes
SY3 9BL,-2.779628,52.700892,Barnardo's Shropshire Project,Bourne House,SY3 9BL,01743 248094,I am the description,I am the title,yes
SY3 9BL,-2.779628,52.700892,Barnardos,Bourne House,SY3 9BL,01743 248094,I am the description,I am the title,yes
SY3 9BL,-2.779628,52.700892,Barnardos,Bourne House,SY3 9BL,01743 248094,I am the description,I am the title,yes
SY3 9BL,-2.779628,52.700892,Barnardos,Bourne House,SY3 9BL,01743 248094,I am the description,I am the title,yes
CO2 9BG,0.877116,51.875253,Srub End Community Centre,Boadicea Way,CO2 9BG,01206 216 405,I am the description,I am the title,yes
BT20 3DE,-5.6762,54.6586,40 Manse Road,,BT20 3DE,2891271538,I am the description,I am the title,yes
BT20 3DE,-5.6762,54.6586,40 Manse Road,,BT20 3DE,2891271538,I am the description,I am the title,yes
BT20 3DE,-5.6762,54.6586,40 Manse Road,,BT20 3DE,2891271538,I am the description,I am the title,yes
EH9 2HH,-3.195422,55.928079,Barnardos,91 South Oswald Road,EH9 2HH,0131 662 4997,I am the description,I am the title,yes
B92 7DJ,-1.812355,52.424939,Langley CC,St Bernards Road,B92 7DJ,0121 248 7646,I am the description,I am the title,yes
B92 8RZ,-1.785094,52.436238,Lyndon CC,Rodney Road,B92 8RZ,0121 248 7646,I am the description,I am the title,yes
B90 1BT,-1.851814,52.406071,Mill Lodge CC,Aqueduct Road,B90 1BT,0121 248 7646,I am the description,I am the title,yes
B90 1BT,-1.851814,52.406071,Mill Lodge CC,Aqueduct Road,B90 1BT,0121 248 7646,I am the description,I am the title,yes
B90 1BT,-1.851814,52.406071,Shirley Heath CC,Coombs Road,B90 1BT,0121 248 7646,I am the description,I am the title,yes
B90 1BT,-1.851814,52.406071,Mill Lodge CC,Aqueduct Road,B90 1BT,0121 248 7646,I am the description,I am the title,yes
B7 4PS,-1.87941,52.49068,Barnardos,40 Rupert Street,B7 4PS,0121 359 5333,I am the description,I am the title,yes
TA2 6RS,-3.14147,51.02831,Brock House Children's Centre,Vilberie Close,TA2 6RS,01823 278000,I am the description,I am the title,yes
TA2 6RS,-3.14147,51.02831,Brock House Children's Centre,Vilberie Close,TA2 6RS,01823 278000,I am the description,I am the title,yes
TA2 8QN,-3.054778,51.042835,Barnardos,Unit 2 Prockters Farm Offices,TA2 8QN,01823 413688,I am the description,I am the title,yes
TA2 8QN,-3.054778,51.042835,Barnardo's,"Unit 2, Prockter's Farm Offices",TA2 8QN,01823 413688,I am the description,I am the title,yes
TA2 8QN,-3.054778,51.042835,Barnardo's Play and Participation,Unit 2 Prockters Farm Offices,TA2 8QN,07584 347291,I am the description,I am the title,yes
KA8 8HH,-4.624779,55.470254,Barnardos,62 Viewfield Road,KA8 8HH,01292 610479,I am the description,I am the title,yes
KA8 8HH,-4.624779,55.470254,Barnardos,62 Viewfield Road,KA8 8HH,01292 610479,I am the description,I am the title,yes
KA8 8HH,-4.624779,55.470254,Barnardos,62 Viewfield Road,KA8 8HH,01292 610479,I am the description,I am the title,yes
DE11 0ER,-1.560626,52.784648,Barnardos Stepping Forward,70-72 Elmsleigh Drive,DE11 0ER,01283 551251,I am the description,I am the title,yes
DE11 0ER,-1.560626,52.784648,Barnardos Stepping Forward,70-72 Elmsleigh Drive,DE11 0ER,01283 551251,I am the description,I am the title,yes
CA16 6TX,-2.485431,54.58097,Appleby Primary School,Station Road,CA16 6TX,08455 436915,I am the description,I am the title,yes
CA16 6TX,-2.485431,54.58097,Appleby Primary School,Station Road,CA16 6TX,8455436915,I am the description,I am the title,yes
BS15 8DB,-2.51543,51.45874,Barnardo's,"Kingswood Foundation, Britannia Road",BS15 8DB,0117 9679341,I am the description,I am the title,yes
BS15 8DB,-2.51543,51.45874,Barnardo's,"Kingswood Foundation, Britannia Road",BS15 8DB,0117 9679341,I am the description,I am the title,yes
BS15 8DB,-2.51543,51.45874,Barnardo's,"Kingswood Foundation, Britannia Road",BS15 8DB,0117 9679341,I am the description,I am the title,yes
BS15 8DB,-2.51543,51.45874,Barnardo's,"Kingswood Foundation, Britannia Road",BS15 8DB,0117 9679341,I am the description,I am the title,yes
BS15 8DB,-2.51543,51.45874,Barnardo's,"Kingswood Foundation, Britannia Road",BS15 8DB,0117 9679341,I am the description,I am the title,yes
TW9 2TE,-0.300429,51.466711,"Room 161, Block D",Richmond Royal Hospital,TW9 2TE,020 8948 5132,I am the description,I am the title,yes
TW9 2TE,-0.300429,51.466711,"Room 161, Block D",Richmond Royal Hospital,TW9 2TE,020 8948 5132,I am the description,I am the title,yes
BS16 3RY,-2.525324,51.47684,South West Regional Office,"Verona House, Filwood Road",BS16 3RY,0117 937 5500,I am the description,I am the title,yes
E17 7QP,-0.02019,51.581952,Cartel House,1b Priory Avenue,E17 7QP,0208 503 7270,I am the description,I am the title,yes
LU7 ONY,-0.720838,51.894544,c/o Wing Children's Centre,Overston School,LU7 ONY,7552708205,I am the description,I am the title,yes
HG4 3HN,-1.533096,54.152365,Spring Hill School,Palace Road,HG4 3HN,1765603320,I am the description,I am the title,yes
IV3 5NS,-4.231313,57.474894,14 Ardross Street,First floor,IV3 5NS,01463 718436,I am the description,I am the title,yes
IV3 5NS,-4.231313,57.474894,14 Ardross Street,First floor,IV3 5NS,01463 718436,I am the description,I am the title,yes
IV3 5NS,-4.231313,57.474894,14 Ardross Street,First floor,IV3 5NS,01463 718436,I am the description,I am the title,yes
IV3 5NS,-4.231313,57.474894,14 Ardross Street,First floor,IV3 5NS,01463 718436,I am the description,I am the title,yes
CO4 3DH,0.929044,51.895547,Harwich Road,,CO4 3DH,01206 865 555,I am the description,I am the title,yes
FY1 4DP,-3.042194,53.813292,Barnardos Blackpool & North Lancashire Project,16 Bennett Avenue,FY1 4DP,1253626480,I am the description,I am the title,yes
CO15 3TB,1.154333,51.796216,Unit 4,30 Oxford Road,CO15 3TB,01255 222 503,I am the description,I am the title,yes
B7 4PS,-1.87941,52.49068,Barnardos,40 Rupert Street,B7 4PS,0121 359 5333,I am the description,I am the title,yes
SS13 3DU,0.504052,51.566314,Pitsea Library,Northlands Pavement,SS13 3DU,01268 720170,I am the description,I am the title,yes
B63 2UX,-2.090189,52.460365,"Barnardos, Blantyre House",4 Barrack Lane,B63 2UX,01384 411722,I am the description,I am the title,yes
FK7 0BB,-3.933547,56.103861,"Barnardos, Braehead House",14 Calton Crescent,FK7 0BB,01786 450963,I am the description,I am the title,yes
FK7 0BB,-3.933547,56.103861,"Barnardos, Braehead House",14 Calton Crescent,FK7 0BB,01786 450 963,I am the description,I am the title,yes
FK7 0BB,-3.933547,56.103861,14 Calton Cres,Braehead,FK7 0BB,01786 450963,I am the description,I am the title,yes
FK7 0BB,-3.933547,56.103861,"Barnardos, Braehead House",14 Calton Crescent,FK7 0BB,01786 450 963,I am the description,I am the title,yes
FK7 0BB,-3.933547,56.103861,"Barnardos, Braehead House",14 Calton Crescent,FK7 0BB,01786 450 963,I am the description,I am the title,yes
FK7 0BB,-3.933547,56.103861,"Barnardos, Braehead House",14 Calton Crescent,FK7 0BB,01786 450 963,I am the description,I am the title,yes
FK7 0BB,-3.933547,56.103861,"Barnardos, Braehead House",14 Calton Crescent,FK7 0BB,01786 450963,I am the description,I am the title,yes
FK7 0BB,-3.933547,56.103861,"Barnardos, Braehead House",14 Calton Crescent,FK7 0BB,01786 450 963,I am the description,I am the title,yes
FK7 0BB,-3.933547,56.103861,"Barnardos, Braehead House",14 Calton Crescent,FK7 0BB,01786 450 963,I am the description,I am the title,yes
FK7 0BB,-3.933547,56.103861,"Barnardos, Braehead House",14 Calton Crescent,FK7 0BB,01786 450 963,I am the description,I am the title,yes
FK7 0BB,-3.933547,56.103861,"Barnardos, Braehead House",14 Calton Crescent,FK7 0BB,01786 450 963,I am the description,I am the title,yes
FK7 0BB,-3.933547,56.103861,"Barnardos, Braehead House",14 Calton Crescent,FK7 0BB,01786 450963,I am the description,I am the title,yes
FK7 0BB,-3.933547,56.103861,"Barnardos, Braehead House",14 Calton Crescent,FK7 0BB,01786 450 963,I am the description,I am the title,yes
FK7 0BB,-3.933547,56.103861,"Barnardos, Braehead House",14 Calton Crescent,FK7 0BB,01786 450 963,I am the description,I am the title,yes
BH3 7ND,-1.874124,50.7373,59 Stokewood Road,Winton,BH3 7ND,,I am the description,I am the title,yes
BT82 9BT,-7.4724,54.8226,Sure Start,2a Melmount Road,BT82 9BT,02871 382658,I am the description,I am the title,yes
BT82 9BT,-7.4724,54.8226,Sure Start,2a Melmount Road,BT82 9BT,02871 382658,I am the description,I am the title,yes
NE33 1BB,-1.435955,54.99673,5-6 Cornwallis street,,NE33 1BB,0191 4974600,I am the description,I am the title,yes
NE33 4BA,-1.430325,54.985884,Barnardos Streetlevel Family Services,Stanhope Parade,NE33 4BA,0191 4553027,I am the description,I am the title,yes
OX14 1JA,-1.287589,51.675575,Summerfield,10 Wootton Road,OX14 1JA,01235 521363,I am the description,I am the title,yes
NE37 2SH,-1.511366,54.908657,Barnardos Sungate Parenting Service,3 Cuthbert House,NE37 2SH,0191 4179329,I am the description,I am the title,yes
NE37 2SH,-1.511366,54.908657,Barnardos Sungate Parenting Service,3 Cuthbert House,NE37 2SH,0191 4179329,I am the description,I am the title,yes
NE8 4DP,-1.601872,54.956417,Barnardos Sungate Parenting Service,20 Bewick Road,NE8 4DP,0191 4784667,I am the description,I am the title,yes
NE37 2SH,-1.511366,54.908657,Barnardos,3 Cuthbert House,NE37 2SH,0191 41479329,I am the description,I am the title,yes
NE37 2SH,-1.511366,54.908657,Barnardos Sungate Parenting Service,3 Cuthbert House,NE37 2SH,0191 4179329,I am the description,I am the title,yes
NE37 2SH,-1.511366,54.908657,Barnardos Sungate Parenting Service,3 Cuthbert House,NE37 2SH,0191 4179329,I am the description,I am the title,yes
NE37 2SH,-1.511366,54.908657,Barnardos Sungate Parenting Service,3 Cuthbert House,NE37 2SH,0191 4179329,I am the description,I am the title,yes
NE37 2SH,-1.511366,54.908657,Barnardos Sungate Parenting Service,3 Cuthbert House,NE37 2SH,0191 4179329,I am the description,I am the title,yes
NE37 2SH,-1.511366,54.908657,Barnardos Sungate Parenting Service,3 Cuthbert House,NE37 2SH,0191 4179329,I am the description,I am the title,yes
NE37 2SH,-1.511366,54.908657,Barnardos Sungate Parenting Service,3 Cuthbert House,NE37 2SH,0191 4179329,I am the description,I am the title,yes
NE37 2SH,-1.511366,54.908657,Barnardos Sungate Parenting Service,3 Cuthbert House,NE37 2SH,0191 4179329,I am the description,I am the title,yes
B60 3FG,-2.060534,52.32209,Sunny Fields Childrens Centre,Lyttleton Avenue,B60 3FG,01527 877465,I am the description,I am the title,yes
CM12 0GH,0.409983,51.64076,Rosebay Avenue,,CM12 0GH,01277 659 589,I am the description,I am the title,yes
TN4 0RJ,0.253622,51.164351,The Sunrise Children's Centre,London Road,TN4 0RJ,01892 528835,I am the description,I am the title,yes
TN4 0RJ,0.253622,51.164351,The Sunrise Children's Centre,London Road,TN4 0RJ,01892 528835,I am the description,I am the title,yes
CM15 8NJ,0.326803,51.629758,Shenfield Library,63 Hutton Road,CM15 8NJ,01277 848 616,I am the description,I am the title,yes
WR14 3SW,-2.301274,52.1048,Sunshine Children's Centre,Bluebell Close,WR14 3SW,01684 577442,I am the description,I am the title,yes
HP14 4BF,-0.821072,51.674796,The Clare Foundation,Wycombe Road,HP14 4BF,01494 568955,I am the description,I am the title,yes
PR2 8JE,-2.712185,53.777021,"Barnardos, Derby House",Lytham Road,PR2 8JE,01772 788775,I am the description,I am the title,yes
BS15 8DB,-2.51543,51.45874,Barnardo's,"Kingswood Foundation Estate, Britannia Road",BS15 8DB,0117 967 9341,I am the description,I am the title,yes
NE6 2FF,-1.57732,54.971764,Byker Sands,19 Raby Cross,NE6 2FF,0191 275 9636,I am the description,I am the title,yes
M22 1NW,-2.263742,53.370616,Woodhouse Park Sure Start,Dinmor Road,M22 1NW,1614990525,I am the description,I am the title,yes
M22 1NW,-2.263742,53.370616,Woodhouse Park Sure Start,Dinmor Road,M22 1NW,1614990525,I am the description,I am the title,yes
OL8 3HH,-2.126774,53.51533,"Hollinwood Childrens Centre, St. Chads Centre",Lime Green Parade,OL8 3HH,0161 633 8417,I am the description,I am the title,yes
RH10 9NE,-0.17917,51.134083,Barnardos,Ground Floor Unit 1,RH10 9NE,01293 610 691,I am the description,I am the title,yes
SM4 6BL,-0.18336,51.387071,St Helier Community Association,Hill House,SM4 6BL,020 8648 3200,I am the description,I am the title,yes
SA5 9AF,-3.957365,51.65399,Children Matter,13-15 Heol Cadifor,SA5 9AF,01792 797289,I am the description,I am the title,yes
SA5 9AF,-3.957365,51.65399,Children Matter,13-15 Heol Cadifor,SA5 9AF,01792 797289,I am the description,I am the title,yes
SA5 9AF,-3.957365,51.65399,Children Matter,13-15 Heol Cadifor,SA5 9AF,01792 797289,I am the description,I am the title,yes
SA5 9AF,-3.957365,51.65399,Children Matter,13-15 Heol Cadifor,SA5 9AF,01792 797289,I am the description,I am the title,yes
PL3 5HQ,-4.127749,50.38975,Sweetpeas Children Centre,23 Brandreth Road,PL3 5HQ,01752 223979,I am the description,I am the title,yes
SN1 5HS,-1.79774,51.556789,Robert le Kyng Childrens Centre,Westcott Street,SN1 5HS,01793 525830,I am the description,I am the title,yes
CO16 7AG,1.128628,51.796823,61a Langham Drive,,CO16 7AG,01255 479 386,I am the description,I am the title,yes
PR1 8BQ,-2.704415,53.757023,Urban Exchange,Theatre Street,PR1 8BQ,01772 255300,I am the description,I am the title,yes
TS24 7DN,-1.204767,54.687025,Barnardo's Hartlepool Services,76 Church Street,TS24 7DN,1429271571,I am the description,I am the title,yes
TS24 7DN,-1.204767,54.687025,Barnardo's Hartlepool Services,76 Church Street,TS24 7DN,01429 424222,I am the description,I am the title,yes
CF33 6BJ,-3.685753,51.52646,Davian House,Village Farm Industrial Estate,CF33 6BJ,01656 749235,I am the description,I am the title,yes
CF33 6BJ,-3.685753,51.52646,Davian House,Village Farm Industrial Estate,CF33 6BJ,01656 749235,I am the description,I am the title,yes
PO33 3LN,-1.174457,50.723737,Ryde Academy,Pell Lane,PO33 3LN,01983 616607,I am the description,I am the title,yes
OL7 9QA,-2.103395,53.501412,Waterloo Children's Centre,,OL7 9QA,0161 331 9946,I am the description,I am the title,yes
BB1 3HQ,-2.459824,53.749781,Room 12,Blackburn Enterprise Centre,BB1 3HQ,01254 504930,I am the description,I am the title,yes
PL19 9FD,-4.145905,50.5458,Barnardos,Tavistock Area Children's Centre,PL19 9FD,01822 614210,I am the description,I am the title,yes
WR6 6DH,-2.421436,52.251876,c/o Clifton upon Teme Primary School,8 The Village,WR6 6DH,01886 812982,I am the description,I am the title,yes
L12 1LU,-2.905558,53.428227,Barnardos,109 Eaton Road,L12 1LU,0151 228 4455,I am the description,I am the title,yes
SS15 5NX,0.430656,51.575961,The James Hornby High School,Leinster Road,SS15 5NX,01268 418 523,I am the description,I am the title,yes
CM15 9DA,0.301281,51.627132,Beckets Keys CofE School,Sawyers Hall Lane,CM15 9DA,01277 212 423,I am the description,I am the title,yes
NE26 2AJ,-1.440624,55.043138,"Barnardos, The BASE Young Peoples Centre",26 Esplanade,NE26 2AJ,0191 253 2127,I am the description,I am the title,yes
NR1 2TJ,1.290977,52.612799,The Base,Cecil Road,NR1 2TJ,01603 463121,I am the description,I am the title,yes
GL4 4NA,-2.216119,51.852761,Coney Hill Community Primary School,Coney Hill Road,GL4 4NA,01452 522738,I am the description,I am the title,yes
M14 4LT,-2.237351,53.45706,Barnardos,36 Monton Street,M14 4LT,,I am the description,I am the title,yes
SS16 6EJ,0.393692,51.560848,The Triangle Community Centre,High Road,SS16 6EJ,01268 532 852,I am the description,I am the title,yes
GY1 1HH,-2.581,49.457,Cour de Bordier,50 The Bordage,GY1 1HH,01481 724421,I am the description,I am the title,yes
GL3 2AG,-2.179955,51.885819,Churchdown Parton Manor Infant School,Craven Drive,GL3 2AG,01452 863816,I am the description,I am the title,yes
GL3 1HJ,-2.199727,51.885238,Innsworth Children's Centre,Luke Lane,GL3 1HJ,01452 863816,I am the description,I am the title,yes
GL1 5JA,-2.248957,51.849549,The Lighthouse Childrens Centre,Linden Road,GL1 5JA,01452 872290,I am the description,I am the title,yes
GL4 6BE,-2.215974,51.837612,The Link Childrens Centre,Matson Avenue,GL4 6BE,01452 560451,I am the description,I am the title,yes
GL4 0RN,-2.26007,51.835643,The Oaks Childrens Centre,Holmleigh Road,GL4 0RN,01452 526856,I am the description,I am the title,yes
TN4 0RJ,0.253622,51.164351,The Sunrise Children's Centre,London Road,TN4 0RJ,01892 528835,I am the description,I am the title,yes
TN4 0RJ,0.253622,51.164351,The Sunrise Children's Centre,London Road,TN4 0RJ,01892 528835,I am the description,I am the title,yes
NG34 7SD,-0.409808,52.9996,lincolnshire Junior Youth Prevntion Programme,The Sessions House,NG34 7SD,01529 308722,I am the description,I am the title,yes
PA15 1DJ,-4.753498,55.945166,Barnardo's Threshold,9 Terrace Road,PA15 1DJ,01475 728493,I am the description,I am the title,yes
BT45 5AY,-6.614,54.7553,36a Westland Road,,BT45 5AY,2879631344,I am the description,I am the title,yes
BT45 5AY,-6.614,54.7553,36a Westland Road,,BT45 5AY,2879631344,I am the description,I am the title,yes
BT7 2FZ,-5.9198,54.5785,234 Ormeau Road,,BT7 2FZ,028 9064 6515,I am the description,I am the title,yes
B63 2UX,-2.090189,52.460365,"Barnardos, Blantyre House",4 Barrack Lane,B63 2UX,01384 411722,I am the description,I am the title,yes
BT12 7FW,-5.9874,54.59413,Barnardo's,c/o St. Aidans CBPS,BT12 7FW,028 9032 0408,I am the description,I am the title,yes
BT5 7EH,-5.8397,54.5892,Tullycarnet Family Project,Kings Road,BT5 7EH,028 9041 9069,I am the description,I am the title,yes
BT5 7EH,-5.8397,54.5892,Tullycarnet Family Project,Kings Road,BT5 7EH,028 9041 9069,I am the description,I am the title,yes
BT5 7EH,-5.8397,54.5892,Tullycarnet Family Project,Kings Road,BT5 7EH,028 9041 9069,I am the description,I am the title,yes
BT5 7EH,-5.8397,54.5892,Tullycarnet Family Project,Kings Road,BT5 7EH,028 9041 9069,I am the description,I am the title,yes
BT5 7EH,-5.8397,54.5892,Tullycarnet Family Project,Kings Road,BT5 7EH,028 9041 9069,I am the description,I am the title,yes
BT5 7EH,-5.8397,54.5892,Tullycarnet Family Project,Kings Road,BT5 7EH,028 9041 9069,I am the description,I am the title,yes
BT5 7EH,-5.8397,54.5892,Tullycarnet Family Project,Kings Road,BT5 7EH,028 9041 9069,I am the description,I am the title,yes
BT5 7EH,-5.8397,54.5892,Tullycarnet Family Project,Kings Road,BT5 7EH,028 9041 9069,I am the description,I am the title,yes
BT5 7EH,-5.8397,54.5892,Tullycarnet Family Project,Kings Road,BT5 7EH,028 9041 9069,I am the description,I am the title,yes
BD10 8SD,-1.735532,53.826043,West Yorkshire Police,Javelin House,BD10 8SD,01274 618421,I am the description,I am the title,yes
GL17 0HN,-2.488955,51.865007,Gloucestershire County Council,Library,GL17 0HN,01594 542182,I am the description,I am the title,yes
SE19 3BG,-0.08663,51.4185,Heshima Family Support Centre,2 Coxwell Road,SE19 3BG,0208 771 0907,I am the description,I am the title,yes
SA72 6XB,-4.9453,51.692255,Pembrokeshire Family Link Service,3-5 Bush Street,SA72 6XB,01646 687064,I am the description,I am the title,yes
OX3 9DD,-1.220987,51.767682,Viking House,"45-47 Saxon Way, Northway Estate",OX3 9DD,01865 762506,I am the description,I am the title,yes
E17 3AG,-0.017714,51.585112,Barnardos,12 Church Hill,E17 3AG,020 8509 3432,I am the description,I am the title,yes
WF10 4JH,-1.343121,53.724921,Barnardo's Wakefield CAPS,Castleford Civic Centre,WF10 4JH,01977 552493,I am the description,I am the title,yes
WF10 4JH,-1.343121,53.724921,Barnardo's Wakefield CAPS,Civic Centre,WF10 4JH,01977 552493,I am the description,I am the title,yes
WF10 4JH,-1.343121,53.724921,Barnardo's Wakefield CAPS,Civic Centre,WF10 4JH,01977 552493,I am the description,I am the title,yes
WF10 4JH,-1.343121,53.724921,Barnardo's Wakefield CAPS (Participation),Castleford Civic Centre,WF10 4JH,01977 552493,I am the description,I am the title,yes
WF10 1DP,-1.355877,53.724289,Wakefield District Young Carers,Five Towns Resource Centre,WF10 1DP,01977 722860,I am the description,I am the title,yes
E17 3AG,-0.017714,51.585112,Barnardos,12 Church Hill,E17 3AG,020 8509 3432,I am the description,I am the title,yes
SE19 3AF,-0.082074,51.417426,Barnardos,Heshima Centre,SE19 3AF,0208 768 5059,I am the description,I am the title,yes
B7 4PS,-1.87941,52.49068,Barnardos,40 Rupert Street,B7 4PS,0121 359 5333,I am the description,I am the title,yes
CA15 8BF,-3.5013,54.71724,Barnardos,Brunswick House,CA15 8BF,01900 819190,I am the description,I am the title,yes
CA15 8BF,-3.5013,54.71724,Barnardos,Brunswick House,CA15 8BF,1900819190,I am the description,I am the title,yes
CA15 8BF,-3.5013,54.71724,Barnardos,Brunswick House,CA15 8BF,1900819190,I am the description,I am the title,yes
B70 6HQ,-1.984174,52.516766,160 Beeches Road,,B70 6HQ,0121 525 5380,I am the description,I am the title,yes
SM4 6BL,-0.18336,51.387071,St Helier Community Association,Hill House,SM4 6BL,020 8648 3203,I am the description,I am the title,yes
DY1 1JB,-2.088439,52.511888,Barnardos,Trinity House,DY1 1JB,01384 458585,I am the description,I am the title,no
LA7 7QF,-2.77063,54.224958,West South Lakeland Sure Start Children's Centre,Milnthorpe Children's Centre,LA7 7QF,0845 543 6918,I am the description,I am the title,no
E9 7BW,-0.040905,51.538578,17 Iveagh Close,,E9 7BW,0208 525 7090,I am the description,I am the title,no
WN3 5BA,-2.635736,53.539773,Wigan Investment Centre,Waterside Drive,WN3 5BA,01942 245877,I am the description,I am the title,no
WN1 1JL,-2.632897,53.54777,35 Market Street,,WN1 1JL,01942 483200,I am the description,I am the title,no
LS13 3DQ,-1.638768,53.809073,Leeds Intensive Family Support,Family Resource Centre,LS13 3DQ,0113 2557755,I am the description,I am the title,no
CO15 4US,1.154385,51.817513,Chingford Avenue,,CO15 4US,01255 224 119,I am the description,I am the title,no
LS7 3HZ,-1.535724,53.812592,Barnardos Willow Young Carers Service,Host Media Centre,LS7 3HZ,0113 2622851,I am the description,I am the title,no
BT32 4HZ,-6.25999,54.34513,44 Whyte Acres,,BT32 4HZ,028 4062 6109,I am the description,I am the title,no
BT32 4HZ,-6.25999,54.34513,44 Whyte Acres,,BT32 4HZ,028 4062 6109,I am the description,I am the title,no
BT32 4HZ,-6.25999,54.34513,44 Whyte Acres,,BT32 4HZ,028 4062 6109,I am the description,I am the title,no
SN14 0JE,-2.132392,51.4621,Brook Street,,SN14 0JE,01249 463907,I am the description,I am the title,no
BS16 3RY,-2.525324,51.47684,Barnardo's South West Regional Office,Verona House,BS16 3RY,0117 9375507,I am the description,I am the title,no
SN14 0JE,-2.132392,51.4621,Brook Street,,SN14 0JE,01249 463907,I am the description,I am the title,no
SN14 0JE,-2.132392,51.4621,Barnardos,Brook Street,SN14 0JE,01249 463907,I am the description,I am the title,no
SN14 0JE,-2.132392,51.4621,Barnardo's,Brook Street,SN14 0JE,01249 463907,I am the description,I am the title,no
GL54 5PZ,-1.967329,51.954669,Winchcombe Library,Back Lane,GL54 5PZ,01242 603602,I am the description,I am the title,no
CO12 5EL,1.226391,51.926574,Two Village Primary School,Mayes Lane,CO12 5EL,01255 887 900,I am the description,I am the title,no
BT9 6EE,-5.9482,54.5808,"Barnardos, Family Resource Centre",23 Windsor Avenue,BT9 6EE,028 9066 7586,I am the description,I am the title,no
CH45 8RE,-3.081168,53.419997,Wirral Alternative School Programme,235 Leasowe Road,CH45 8RE,0151 637 6173,I am the description,I am the title,no
CH45 8RE,-3.081168,53.419997,Solar Campus,235 Leasowe Road,CH45 8RE,0151 637 6173,I am the description,I am the title,no
CH45 8RE,-3.081168,53.419997,Solar Campus,235 Leasowe Road,CH45 8RE,0151 6376173,I am the description,I am the title,no
CH45 8RE,-3.081168,53.419997,Solar Campus,235 Leasowe Road,CH45 8RE,0151 637 6173,I am the description,I am the title,no
CH45 8RE,-3.081168,53.419997,Solar Campus,235 Leasowe Road,CH45 8RE,0151 637 6173,I am the description,I am the title,no
CH41 5EA,-3.013594,53.392356,Barnardos,56 Chester Street,CH41 5EA,0151 647 2794,I am the description,I am the title,no
KA8 8HH,-4.624779,55.470254,Barnardos,62 Viewfield Road,KA8 8HH,01292 610479,I am the description,I am the title,no
DD3 6HG,-2.983583,56.466441,Barnardos,1 Dudhope Terrace,DD3 6HG,7919396438,I am the description,I am the title,no
WR9 0NX,-2.169798,52.284889,"Worcestershire Short Breaks, Prestige House",Wassage Way,WR9 0NX,01905 778275,I am the description,I am the title,no
WR9 0NX,-2.169798,52.284889,"Worcestershire Short Breaks, Prestige House",Wassage Way,WR9 0NX,1905778275,I am the description,I am the title,no
FY1 4DP,-3.042194,53.813292,Barnardos Blackpool & North Lancashire Project,16 Bennett Avenue,FY1 4DP,1253626480,I am the description,I am the title,no
FY1 4DP,-3.042194,53.813292,Barnardos Blackpool & North Lancashire Project,16 Bennett Avenue,FY1 4DP,1253626480,I am the description,I am the title,no
WR9 0NX,-2.169798,52.284889,"Worcestershire Short Breaks, Prestige House",Wassage Way,WR9 0NX,01905 778275,I am the description,I am the title,no
HG2 7SR,-1.516712,53.995753,Dr B's,13-15 Knaresborough Road,HG2 7SR,01423 884819,I am the description,I am the title,no
LS18 4LB,-1.63876,53.8313,"Barnardos, Four Gables",Clarence Road,LS18 4LB,0113 393 3200,I am the description,I am the title,no
EH9 2HH,-3.195422,55.928079,You First Service,91 South Oswald Road,EH9 2HH,0131 662 4997,I am the description,I am the title,no
SE19 3AF,-0.082074,51.417426,Heshima,2 Coxwell Road (off Westow Street),SE19 3AF,0208 771 0907,I am the description,I am the title,no
SE19 3BG,-0.08663,51.4185,Heshima Family Support Centre,2 Coxwell Road,SE19 3BG,0208 771 0907,I am the description,I am the title,no
PL3 4BB,-4.160899,50.382096,Unit 112,City Business Park,PL3 4BB,01752 564572,I am the description,I am the title,no
PL3 4BB,-4.160899,50.382096,Unit 112,City Business Park,PL3 4BB,01752 564572,I am the description,I am the title,no
BT45 5AY,-6.614,54.7553,36a Westland Road,,BT45 5AY,028 79631344,I am the description,I am the title,no
BT45 5AY,-6.614,54.7553,36a Westland Road,,BT45 5AY,028 79631344,I am the description,I am the title,no
BT45 5AY,-6.614,54.7553,36a Westland Road,,BT45 5AY,028 79631344,I am the description,I am the title,no
BT45 5AY,-6.614,54.7553,36a Westland Road,,BT45 5AY,028 79631344,I am the description,I am the title,no
BT45 5AY,-6.614,54.7553,36a Westland Road,,BT45 5AY,028 79631344,I am the description,I am the title,no
BT45 5AY,-6.614,54.7553,36a Westland Road,,BT45 5AY,028 79631344,I am the description,I am the title,no
WF10 4JH,-1.343121,53.724921,Room 249,Castleford Civic Centre,WF10 4JH,01924 304152,I am the description,I am the title,no
WF10 4JH,-1.343121,53.724921,Room 249,Castleford Civic Centre,WF10 4JH,1924304152,I am the description,I am the title,no
WF10 4JH,-1.343121,53.724921,Room 249,Castleford Civic Centre,WF10 4JH,01924 304152,I am the description,I am the title,no
BT61 7DX,-6.656,54.3495,15 Abbey Street,,BT61 7DX,028 37510122,I am the description,I am the title,no
BT61 7DX,-6.656,54.3495,15 Abbey Street,,BT61 7DX,028 37510122,I am the description,I am the title,no
BT61 7DX,-6.656,54.3495,15 Abbey Street,,BT61 7DX,028 37510122,I am the description,I am the title,no
BT61 7DX,-6.656,54.3495,15 Abbey Street,,BT61 7DX,028 37510122,I am the description,I am the title,no
BT61 7DX,-6.656,54.3495,15 Abbey Street,,BT61 7DX,028 37510122,I am the description,I am the title,no
BT9 6BQ,-5.9388,54.5839,10 College Gardens,,BT9 6BQ,2890204600,I am the description,I am the title,no
BT34 2BX,-6.337139,54.172582,15 St Colemans Park,,BT34 2BX,2830263135,I am the description,I am the title,no
HG5 9AY,-1.478504,54.01143,Unit 4,Innovation Centre,HG5 9AY,01423 799066/7,I am the description,I am the title,no
DE75 7EB,-1.353779,53.012367,Barnardos,9 Mundy Street,DE75 7EB,01773 717212,I am the description,I am the title,no
LE19 4SD,-1.210575,52.596845,"Barnardos, West Point",Feldspar Close,LE19 4SD,0116 2867182,I am the description,I am the title,no
NG34 7SD,-0.409808,52.9996,1 the Market Place,,NG34 7SD,01529 309052,I am the description,I am the title,no
NG5 1AW,-1.155258,52.971992,"Barnardos, Sherwood Project",2 Clinton Avenue,NG5 1AW,0115 969 1177,I am the description,I am the title,no
B63 3AB,-2.048437,52.448029,Brooklands,Great Cornbow,B63 3AB,0121 5505271,I am the description,I am the title,no
